{"type": "FeatureCollection", "features": [{"type": "Feature", "id": 1809017539, "properties": {"amenity": "clinic", "name": "Centro de Salud La Boquilla", "source": "local"}, "geometry": {"type": "Point", "coordinates": [-75.4953297, 10.4751384]}}, {"type": "Feature", "id": 2862518701, "properties": {"addr:city": "Cartagena", "addr:housenumber": "19-55", "addr:street": "Carrera 18", "amenity": "clinic", "building": "yes", "healthcare": "clinic", "name": "Vida Bella Medicina Estética y Ortomolecular", "phone": "+57 3168339260"}, "geometry": {"type": "Point", "coordinates": [-75.5415093, 10.4135972]}}, {"type": "Feature", "id": 3078326584, "properties": {"amenity": "clinic", "name": "UBA - Tierra Baja", "source": "Bing"}, "geometry": {"type": "Point", "coordinates": [-75.4743941, 10.4920793]}}, {"type": "Feature", "id": 4453745674, "properties": {"amenity": "clinic", "healthcare": "clinic", "name": "Liga Colombiana Contra el Cancer", "source": "survey"}, "geometry": {"type": "Point", "coordinates": [-75.5531751, 10.4248987]}}, {"type": "Feature", "id": 5393874661, "properties": {"addr:street": "Carrera 6", "amenity": "clinic", "healthcare": "clinic", "name": "Prisma Centro Medico", "source": "Kaart Ground Survey 2018"}, "geometry": {"type": "Point", "coordinates": [-75.5556487, 10.3979242]}}, {"type": "Feature", "id": 5762630153, "properties": {"amenity": "clinic", "healthcare": "clinic", "name": "CASA Doña arsenia"}, "geometry": {"type": "Point", "coordinates": [-75.4587514, 10.3825694]}}, {"type": "Feature", "id": 5794579083, "properties": {"amenity": "clinic", "healthcare": "clinic", "name": "Cedimagen"}, "geometry": {"type": "Point", "coordinates": [-75.5377704, 10.4140891]}}, {"type": "Feature", "id": 5794579143, "properties": {"amenity": "clinic", "healthcare": "clinic", "name": "Laboratorio Clínico Syso"}, "geometry": {"type": "Point", "coordinates": [-75.5325032, 10.4106788]}}, {"type": "Feature", "id": 5809571647, "properties": {"amenity": "clinic", "email": "gastrocaribesas@gmail.com", "healthcare": "clinic", "name": "GastroCaribe", "phone": "+57 5 6431665", "phone1": "+57 3164561517", "website": "https://www.gastrocaribesas.com.co/"}, "geometry": {"type": "Point", "coordinates": [-75.5401837, 10.4159747]}}, {"type": "Feature", "id": 6392201944, "properties": {"amenity": "clinic", "healthcare": "clinic", "name:en": "Yellow Fever Vaccines"}, "geometry": {"type": "Point", "coordinates": [-75.545949, 10.4189582]}}, {"type": "Feature", "id": 8637779017, "properties": {"amenity": "clinic", "healthcare": "clinic", "name": "Laboratorio Ficha Madica"}, "geometry": {"type": "Point", "coordinates": [-75.5344045, 10.4182197]}}, {"type": "Feature", "id": 9487066918, "properties": {"amenity": "clinic", "healthcare": "clinic", "name": "Centro de salud Olaya Herrera"}, "geometry": {"type": "Point", "coordinates": [-75.4849894, 10.4058218]}}, {"type": "Feature", "id": 9592727617, "properties": {"amenity": "clinic", "healthcare": "clinic", "name": "Health Cars - servicio integral de salud"}, "geometry": {"type": "Point", "coordinates": [-75.5164792, 10.4474564]}}, {"type": "Feature", "id": 11914025769, "properties": {"addr:street": "Calle 29B", "amenity": "clinic", "healthcare": "clinic", "name": "Colmedicos Laboratorio"}, "geometry": {"type": "Point", "coordinates": [-75.5344193, 10.4146166]}}, {"type": "Feature", "id": 13924587630, "properties": {"amenity": "clinic", "healthcare": "clinic", "level": "1", "name": "Rehabilitar IPS", "operator": "Rehabilitar IPS", "operator:type": "private"}, "geometry": {"type": "Point", "coordinates": [-75.490029, 10.3944725]}}, {"type": "Feature", "id": 13924587631, "properties": {"amenity": "clinic", "healthcare": "clinic", "name": "Proseguir IPS", "operator": "Proseguir IPS", "operator:type": "private"}, "geometry": {"type": "Point", "coordinates": [-75.4903508, 10.39441]}}, {"type": "Feature", "id": 54926816, "properties": {"amenity": "clinic", "building": "yes", "emergency": "yes", "healthcare": "clinic", "name": "Clínica Cartagena del Mar S.A.S,"}, "geometry": {"type": "Polygon", "coordinates": [[[-75.5330725, 10.4204081], [-75.5328182, 10.4208129], [-75.5324925, 10.4206178], [-75.5327021, 10.4202397], [-75.5327124, 10.4202177], [-75.5328084, 10.4202685], [-75.5329603, 10.4203488], [-75.5330725, 10.4204081]]]}}, {"type": "Feature", "id": 435829140, "properties": {"amenity": "clinic", "building": "yes", "healthcare": "clinic", "healthcare:speciality": "psychiatry", "name": "Clínica La Misericordia", "phone": "+5756722913"}, "geometry": {"type": "Polygon", "coordinates": [[[-75.5142174, 10.4074075], [-75.5141007, 10.4076238], [-75.5138902, 10.4075078], [-75.5139814, 10.4073442], [-75.5140887, 10.4074009], [-75.5141168, 10.4073561], [-75.5142174, 10.4074075]]]}}, {"type": "Feature", "id": 462964499, "properties": {"amenity": "clinic", "building": "yes", "building:levels": "2", "healthcare": "clinic", "name": "Viva 1A EPS"}, "geometry": {"type": "Polygon", "coordinates": [[[-75.5384485, 10.4205401], [-75.5382719, 10.4204897], [-75.5384804, 10.4197905], [-75.5386563, 10.4198412], [-75.5384916, 10.420392], [-75.5384485, 10.4205401]]]}}, {"type": "Feature", "id": 494724533, "properties": {"amenity": "clinic", "building": "yes"}, "geometry": {"type": "Polygon", "coordinates": [[[-75.5055953, 10.4560946], [-75.5056134, 10.4560012], [-75.5055504, 10.4560072], [-75.5055244, 10.4560747], [-75.5055953, 10.4560946]]]}}, {"type": "Feature", "id": 559154551, "properties": {"addr:street": "Carrera 44", "amenity": "clinic", "building": "yes", "building:levels": "5", "healthcare": "clinic", "name": "Clínica Crecer", "source": "Kaart Ground Survey 2018"}, "geometry": {"type": "Polygon", "coordinates": [[[-75.513951, 10.4061169], [-75.5137754, 10.4060233], [-75.5139024, 10.4057928], [-75.514078, 10.4058864], [-75.513951, 10.4061169]]]}}, {"type": "Feature", "id": 559624529, "properties": {"addr:street": "Carrera 14", "amenity": "clinic", "building": "yes", "healthcare": "clinic", "name": "Mision Medica", "source": "Kaart Ground Survey 2018"}, "geometry": {"type": "Polygon", "coordinates": [[[-75.5246384, 10.4412624], [-75.5241574, 10.4412489], [-75.5241693, 10.4409715], [-75.5244371, 10.440978], [-75.5244292, 10.4411228], [-75.5246422, 10.4411288], [-75.5246384, 10.4412624]]]}}, {"type": "Feature", "id": 559964045, "properties": {"addr:street": "Calle 31D", "amenity": "clinic", "building": "yes", "healthcare": "clinic", "name": "Opresalud S.A. IPS", "source": "KaartGroundSurvery2018"}, "geometry": {"type": "Polygon", "coordinates": [[[-75.4996803, 10.4084859], [-75.4995824, 10.4084793], [-75.4996132, 10.4082885], [-75.4997124, 10.4082977], [-75.4996803, 10.4084859]]]}}, {"type": "Feature", "id": 560755075, "properties": {"addr:street": "Avenida Carrera 31", "amenity": "clinic", "healthcare": "clinic", "name": "Clínica Barú", "operator": "Clínica Barú"}, "geometry": {"type": "LineString", "coordinates": [[-75.4917048, 10.3960028], [-75.4915565, 10.3958451], [-75.4914935, 10.3957759], [-75.4914966, 10.3957705], [-75.491509, 10.3957488], [-75.4916751, 10.3954652], [-75.4916894, 10.3954407], [-75.4917672, 10.395485], [-75.4917532, 10.395509], [-75.4917414, 10.3955292], [-75.4916962, 10.3956063], [-75.4917551, 10.395641], [-75.4917828, 10.3956573], [-75.4918642, 10.3957053], [-75.4918805, 10.3957149], [-75.4917048, 10.3960028]]}}, {"type": "Feature", "id": 560809349, "properties": {"addr:street": "Avenida Carrera 31", "amenity": "clinic", "building": "yes", "healthcare": "clinic", "name": "Clínica Crecer", "source": "Kaart Ground Survey 2018"}, "geometry": {"type": "Polygon", "coordinates": [[[-75.5174178, 10.4091863], [-75.5175033, 10.4092224], [-75.5173826, 10.4094994], [-75.5172971, 10.4094633], [-75.5174178, 10.4091863]]]}}, {"type": "Feature", "id": 561136836, "properties": {"addr:street": "Calle 30", "amenity": "clinic", "building": "yes", "healthcare": "clinic", "name": "SaludElite", "source": "Kaart Ground Survey 2018"}, "geometry": {"type": "Polygon", "coordinates": [[[-75.5198492, 10.4162154], [-75.51999, 10.4162312], [-75.5199802, 10.4163154], [-75.5198394, 10.4162996], [-75.5198492, 10.4162154]]]}}, {"type": "Feature", "id": 561393968, "properties": {"addr:street": "Avenida Carrera 31", "amenity": "clinic", "building": "yes", "healthcare": "clinic", "name": "Nueva EPS", "source": "Kaart Ground Survey 2018"}, "geometry": {"type": "Polygon", "coordinates": [[[-75.5188742, 10.4104645], [-75.5187629, 10.4103959], [-75.5189453, 10.4100068], [-75.5190499, 10.410074], [-75.5188742, 10.4104645]]]}}, {"type": "Feature", "id": 596719761, "properties": {"amenity": "clinic", "building": "hospital", "healthcare": "clinic", "name": "Cemic Unidad de Salud Mental"}, "geometry": {"type": "Polygon", "coordinates": [[[-75.5422095, 10.4322915], [-75.5420503, 10.4321307], [-75.5421478, 10.4320373], [-75.5422912, 10.4321822], [-75.5422729, 10.4321997], [-75.5422887, 10.4322157], [-75.5422685, 10.432235], [-75.542249, 10.4322537], [-75.5422095, 10.4322915]]]}}, {"type": "Feature", "id": 1205211356, "properties": {"amenity": "clinic", "building": "yes", "building:levels": "5", "healthcare": "clinic", "name": "Clínica Higea I.P.S. S.A."}, "geometry": {"type": "Polygon", "coordinates": [[[-75.5149495, 10.4063663], [-75.514842, 10.4065713], [-75.5146151, 10.4064554], [-75.5146802, 10.4063312], [-75.5147221, 10.4062517], [-75.514815, 10.4062986], [-75.5149495, 10.4063663]]]}}, {"type": "Feature", "id": 1207051685, "properties": {"amenity": "clinic", "healthcare": "clinic", "name": "CAP: Puesto de Salud ‒ Blas de Lezo"}, "geometry": {"type": "LineString", "coordinates": [[-75.486267, 10.3873996], [-75.4858968, 10.3872787], [-75.4858945, 10.3872858], [-75.4858853, 10.3872833], [-75.4858786, 10.3872815], [-75.4858832, 10.3872571], [-75.4858094, 10.3872343], [-75.4858191, 10.3873272], [-75.4858424, 10.3873311], [-75.4858449, 10.3873429], [-75.4858459, 10.3873541], [-75.4858255, 10.3873637], [-75.4858457, 10.3875621], [-75.4859807, 10.3875477], [-75.4859932, 10.3876185], [-75.4860415, 10.3876085], [-75.486212, 10.3875733], [-75.4862449, 10.3874733], [-75.486267, 10.3873996]]}}, {"type": "Feature", "id": 1207330380, "properties": {"amenity": "clinic", "building": "house", "building:levels": "1", "healthcare": "clinic", "name": "Trabajemos Juntos IPS S.A.S."}, "geometry": {"type": "Polygon", "coordinates": [[[-75.4884915, 10.3919023], [-75.4884717, 10.3919797], [-75.4882195, 10.3919172], [-75.4882391, 10.3918397], [-75.4884915, 10.3919023]]]}}, {"type": "Feature", "id": 1211645217, "properties": {"amenity": "clinic", "building": "yes", "building:levels": "2", "healthcare": "clinic", "name": "Clínica de la Costa"}, "geometry": {"type": "Polygon", "coordinates": [[[-75.4877632, 10.3866859], [-75.4876788, 10.386662], [-75.4876374, 10.3868029], [-75.4877218, 10.3868269], [-75.4877632, 10.3866859]]]}}, {"type": "Feature", "id": 1266200809, "properties": {"amenity": "clinic", "building": "house", "building:levels": "3", "healthcare": "clinic", "name": "Si + Salud IPS"}, "geometry": {"type": "Polygon", "coordinates": [[[-75.5011068, 10.3877015], [-75.5010977, 10.3876506], [-75.5009459, 10.3876784], [-75.5009539, 10.3877254], [-75.5011068, 10.3877015]]]}}, {"type": "Feature", "id": 1304188751, "properties": {"amenity": "clinic", "healthcare": "clinic", "name": "Clínica General Del Norte"}, "geometry": {"type": "LineString", "coordinates": [[-75.4894116, 10.3955088], [-75.4891963, 10.395387], [-75.4891975, 10.3953491], [-75.4891987, 10.3953154], [-75.4892011, 10.3952418], [-75.4892039, 10.3951556], [-75.489207, 10.3950623], [-75.4892155, 10.3948049], [-75.4892166, 10.39477], [-75.4894387, 10.3948299], [-75.4894366, 10.3948816], [-75.4894338, 10.3949529], [-75.4894326, 10.3949818], [-75.4894177, 10.3953567], [-75.4894151, 10.3954217], [-75.4894116, 10.3955088]]}}, {"type": "Feature", "id": 1361236344, "properties": {"amenity": "clinic", "healthcare": "clinic", "name": "Clínica Santa Cruz", "operator": "Clínica Santa Cruz", "operator:type": "private"}, "geometry": {"type": "LineString", "coordinates": [[-75.5530738, 10.4043886], [-75.5532346, 10.404202], [-75.5532676, 10.4042295], [-75.5535149, 10.4044355], [-75.5534625, 10.4044963], [-75.5535339, 10.4045557], [-75.5535048, 10.4045894], [-75.5535688, 10.4046427], [-75.5534893, 10.404735], [-75.5533546, 10.4046227], [-75.553209, 10.4045013], [-75.5531076, 10.4044167], [-75.5530738, 10.4043886]]}}, {"type": "Feature", "id": 1467182851, "properties": {"amenity": "clinic", "healthcare": "clinic", "name": "Clínica Nuestra", "operator": "Clínica Nuestra", "operator:type": "private"}, "geometry": {"type": "LineString", "coordinates": [[-75.4793701, 10.391946], [-75.4793441, 10.3919257], [-75.4791024, 10.3917373], [-75.4790843, 10.3917232], [-75.4790663, 10.3917091], [-75.479044, 10.3917351], [-75.479013, 10.3917713], [-75.4789909, 10.3917972], [-75.4789392, 10.3918576], [-75.4789856, 10.3918917], [-75.4792154, 10.3920606], [-75.4792512, 10.3920869], [-75.4793701, 10.391946]]}}, {"type": "Feature", "id": 1467182856, "properties": {"amenity": "clinic", "healthcare": "clinic", "name": "Virrey Solís I.P.S.: Unidad de Atención Primaria en Salud Caribe", "operator": "Salud Total", "operator:type": "privatew"}, "geometry": {"type": "LineString", "coordinates": [[-75.4789392, 10.3918576], [-75.4787968, 10.392043], [-75.4788426, 10.3920769], [-75.4789091, 10.3921261], [-75.4789238, 10.3921369], [-75.4790756, 10.3922491], [-75.4790995, 10.3922669], [-75.4792512, 10.3920869], [-75.4792154, 10.3920606], [-75.4789856, 10.3918917], [-75.4789392, 10.3918576]]}}, {"type": "Feature", "id": 1467182860, "properties": {"amenity": "clinic", "healthcare": "clinic", "name": "Virrey Solís I.P.S.: PAU", "operator": "Salud Total", "operator:type": "private"}, "geometry": {"type": "LineString", "coordinates": [[-75.4790528, 10.3915763], [-75.4791681, 10.3914371], [-75.4791422, 10.3914165], [-75.4791251, 10.3914029], [-75.4790428, 10.3913375], [-75.4789717, 10.3912811], [-75.4789385, 10.3912548], [-75.4789282, 10.3912466], [-75.4788519, 10.391186], [-75.4788201, 10.3911608], [-75.4787033, 10.3913229], [-75.4786805, 10.3913546], [-75.4787321, 10.3913854], [-75.4787842, 10.3914164], [-75.4790528, 10.3915763]]}}, {"type": "Feature", "id": 1480352044, "properties": {"amenity": "clinic", "healthcare": "clinic", "name": "Centro Médico Santa Lucía"}, "geometry": {"type": "LineString", "coordinates": [[-75.4776216, 10.3934117], [-75.4776763, 10.3933457], [-75.4777345, 10.3932753], [-75.4777768, 10.3932242], [-75.4777991, 10.3931978], [-75.4778376, 10.3931513], [-75.477873, 10.393108], [-75.477894, 10.3930826], [-75.4781046, 10.3928281], [-75.4781322, 10.3927948], [-75.4781649, 10.3928191], [-75.4781893, 10.3928373], [-75.4782498, 10.3928822], [-75.4783367, 10.3929465], [-75.4784532, 10.3930332], [-75.4783678, 10.3931345], [-75.4783623, 10.393141], [-75.4782843, 10.3932335], [-75.4782303, 10.3932975], [-75.4780332, 10.3935311], [-75.4779944, 10.3935758], [-75.4779429, 10.3936389], [-75.4777729, 10.3935191], [-75.4776891, 10.3934585], [-75.4776216, 10.3934117]]}}, {"type": "Feature", "id": 1481270980, "properties": {"addr:city": "Cartagena de Indias", "addr:housenumber": "31-188", "addr:postcode": "130010", "addr:street": "Carrera 71", "amenity": "clinic", "healthcare": "clinic", "name": "Salud y Bienestar del Caribe IPS", "operator": "Salud y Bienestar del Caribe IPS", "operator:type": "private"}, "geometry": {"type": "LineString", "coordinates": [[-75.4783851, 10.392505], [-75.4783083, 10.3925902], [-75.4783574, 10.3926265], [-75.4783732, 10.3926383], [-75.4783894, 10.3926502], [-75.4784188, 10.392672], [-75.4786276, 10.3928265], [-75.478706, 10.3927335], [-75.4784562, 10.3925556], [-75.4784453, 10.392548], [-75.4783851, 10.392505]]}}, {"type": "Feature", "id": 1481636909, "properties": {"amenity": "clinic", "healthcare": "clinic", "name": "Salud Total EPS-S: Centro de Soluciones en Salud", "operator": "Salud Total", "operator:type": "private"}, "geometry": {"type": "LineString", "coordinates": [[-75.4793105, 10.3914233], [-75.4792477, 10.3914968], [-75.4792762, 10.3915176], [-75.4793192, 10.3915489], [-75.4794434, 10.3916394], [-75.4794506, 10.3916446], [-75.4795581, 10.391723], [-75.4796151, 10.3916554], [-75.4795403, 10.3915985], [-75.4795019, 10.3915692], [-75.4794778, 10.3915508], [-75.4793986, 10.3914905], [-75.4793362, 10.391443], [-75.4793105, 10.3914233]]}}, {"type": "Feature", "id": 1531300298, "properties": {"amenity": "clinic", "healthcare": "clinic", "name": "Red Médica Integral S.A.S.", "operator": "Red Médica Integral S.A.S."}, "geometry": {"type": "LineString", "coordinates": [[-75.4870184, 10.3958888], [-75.4870168, 10.3959941], [-75.4870165, 10.3960111], [-75.4868764, 10.396009], [-75.4868783, 10.3958867], [-75.4868966, 10.395887], [-75.4870184, 10.3958888]]}}, {"type": "Feature", "id": 1531300373, "properties": {"amenity": "clinic", "healthcare": "clinic", "name": "Medicina Integral del Caribe S.A.S.", "operator": "Medicina Integral del Caribe S.A.S."}, "geometry": {"type": "LineString", "coordinates": [[-75.4870073, 10.397119], [-75.4868863, 10.3971175], [-75.48686, 10.3971171], [-75.4868584, 10.3972403], [-75.4870056, 10.3972422], [-75.4871413, 10.3972439], [-75.4871454, 10.396933], [-75.4871272, 10.3969328], [-75.4870097, 10.3969313], [-75.4870084, 10.3970298], [-75.4870073, 10.397119]]}}]}