{"type": "FeatureCollection", "features": [{"type": "Feature", "id": 838206485, "properties": {"bus": "yes", "highway": "bus_stop", "public_transport": "platform"}, "geometry": {"type": "Point", "coordinates": [-75.5299095, 10.4130486]}}, {"type": "Feature", "id": 891268909, "properties": {"bus": "yes", "highway": "bus_stop", "name": "Parque María Mulata-Cl.15", "public_transport": "platform"}, "geometry": {"type": "Point", "coordinates": [-75.5501331, 10.4141609]}}, {"type": "Feature", "id": 892055018, "properties": {"bus": "yes", "highway": "bus_stop", "name": "Hospital Naval", "public_transport": "platform"}, "geometry": {"type": "Point", "coordinates": [-75.5508144, 10.4159034]}}, {"type": "Feature", "id": 898552127, "properties": {"bus": "yes", "highway": "bus_stop", "public_transport": "platform", "shelter": "no"}, "geometry": {"type": "Point", "coordinates": [-75.5055388, 10.4034291]}}, {"type": "Feature", "id": 1102091390, "properties": {"bus": "yes", "highway": "bus_stop", "public_transport": "platform"}, "geometry": {"type": "Point", "coordinates": [-75.5303851, 10.4134677]}}, {"type": "Feature", "id": 1156427607, "properties": {"bench": "no", "bin": "no", "bus": "yes", "highway": "bus_stop", "public_transport": "platform", "shelter": "no", "tactile_paving": "no"}, "geometry": {"type": "Point", "coordinates": [-75.5325028, 10.4151704]}}, {"type": "Feature", "id": 1156427609, "properties": {"bus": "yes", "highway": "bus_stop", "public_transport": "platform"}, "geometry": {"type": "Point", "coordinates": [-75.5357513, 10.4187067]}}, {"type": "Feature", "id": 1156427614, "properties": {"bus": "yes", "highway": "bus_stop", "public_transport": "platform"}, "geometry": {"type": "Point", "coordinates": [-75.5336481, 10.4163267]}}, {"type": "Feature", "id": 1156427623, "properties": {"bus": "yes", "highway": "bus_stop", "public_transport": "platform"}, "geometry": {"type": "Point", "coordinates": [-75.5313486, 10.4143106]}}, {"type": "Feature", "id": 1156427627, "properties": {"bus": "yes", "highway": "bus_stop", "public_transport": "platform"}, "geometry": {"type": "Point", "coordinates": [-75.5347212, 10.4175416]}}, {"type": "Feature", "id": 2223103606, "properties": {"bus": "yes", "highway": "bus_stop", "public_transport": "platform", "source": "bing"}, "geometry": {"type": "Point", "coordinates": [-75.5518329, 10.4169413]}}, {"type": "Feature", "id": 2223103612, "properties": {"bus": "yes", "highway": "bus_stop", "public_transport": "platform", "source": "bing"}, "geometry": {"type": "Point", "coordinates": [-75.5537668, 10.4217343]}}, {"type": "Feature", "id": 2223103616, "properties": {"bus": "yes", "highway": "bus_stop", "public_transport": "platform", "shelter": "yes", "source": "bing"}, "geometry": {"type": "Point", "coordinates": [-75.5543163, 10.423223]}}, {"type": "Feature", "id": 2223103620, "properties": {"bench": "yes", "bin": "no", "bus": "yes", "highway": "bus_stop", "public_transport": "platform", "shelter": "yes", "source": "bing"}, "geometry": {"type": "Point", "coordinates": [-75.5543523, 10.4233084]}}, {"type": "Feature", "id": 2223103622, "properties": {"bus": "yes", "highway": "bus_stop", "public_transport": "platform", "shelter": "yes", "source": "bing"}, "geometry": {"type": "Point", "coordinates": [-75.5497015, 10.4285763]}}, {"type": "Feature", "id": 2223103626, "properties": {"bus": "yes", "highway": "bus_stop", "public_transport": "platform", "source": "bing"}, "geometry": {"type": "Point", "coordinates": [-75.5492286, 10.4286253]}}, {"type": "Feature", "id": 2223103631, "properties": {"bus": "yes", "highway": "bus_stop", "public_transport": "platform", "shelter": "yes", "source": "bing"}, "geometry": {"type": "Point", "coordinates": [-75.5495565, 10.4286907]}}, {"type": "Feature", "id": 2223103634, "properties": {"bus": "yes", "highway": "bus_stop", "public_transport": "platform", "source": "bing"}, "geometry": {"type": "Point", "coordinates": [-75.5494226, 10.4287916]}}, {"type": "Feature", "id": 2223103639, "properties": {"bus": "yes", "highway": "bus_stop", "public_transport": "platform", "source": "bing"}, "geometry": {"type": "Point", "coordinates": [-75.548693, 10.4292975]}}, {"type": "Feature", "id": 2223103645, "properties": {"bus": "yes", "highway": "bus_stop", "public_transport": "platform", "source": "bing"}, "geometry": {"type": "Point", "coordinates": [-75.5486043, 10.4293674]}}, {"type": "Feature", "id": 2223103649, "properties": {"bus": "yes", "highway": "bus_stop", "public_transport": "platform", "source": "bing"}, "geometry": {"type": "Point", "coordinates": [-75.5484843, 10.4294528]}}, {"type": "Feature", "id": 2223103654, "properties": {"bus": "yes", "highway": "bus_stop", "public_transport": "platform", "source": "bing"}, "geometry": {"type": "Point", "coordinates": [-75.5473502, 10.4303401]}}, {"type": "Feature", "id": 2223103670, "properties": {"bench": "yes", "bin": "no", "bus": "yes", "highway": "bus_stop", "public_transport": "platform", "shelter": "yes", "source": "bing"}, "geometry": {"type": "Point", "coordinates": [-75.5336314, 10.437042]}}, {"type": "Feature", "id": 2223103676, "properties": {"bus": "yes", "highway": "bus_stop", "name": "Terrazas de San Sebastian - parada de Transcribe", "public_transport": "platform", "source": "bing"}, "geometry": {"type": "Point", "coordinates": [-75.5316431, 10.4386514]}}, {"type": "Feature", "id": 2223103690, "properties": {"bench": "yes", "bus": "yes", "highway": "bus_stop", "public_transport": "platform", "shelter": "yes", "source": "bing"}, "geometry": {"type": "Point", "coordinates": [-75.5303419, 10.4392418]}}, {"type": "Feature", "id": 2223103693, "properties": {"highway": "bus_stop", "source": "bing"}, "geometry": {"type": "Point", "coordinates": [-75.5290998, 10.440387]}}, {"type": "Feature", "id": 2223103697, "properties": {"highway": "bus_stop", "source": "bing"}, "geometry": {"type": "Point", "coordinates": [-75.5289455, 10.4404888]}}, {"type": "Feature", "id": 2223103701, "properties": {"highway": "bus_stop", "source": "bing"}, "geometry": {"type": "Point", "coordinates": [-75.5287904, 10.4405923]}}, {"type": "Feature", "id": 2223123733, "properties": {"bench": "yes", "bin": "no", "bus": "yes", "highway": "bus_stop", "public_transport": "platform", "shelter": "yes", "source": "bing"}, "geometry": {"type": "Point", "coordinates": [-75.5515263, 10.4059535]}}, {"type": "Feature", "id": 3887891251, "properties": {"bus": "yes", "highway": "bus_stop", "name": "CitySightseeing Cartagena", "public_transport": "platform"}, "geometry": {"type": "Point", "coordinates": [-75.5508261, 10.3954026]}}, {"type": "Feature", "id": 4626901291, "properties": {"bus": "yes", "highway": "bus_stop", "name": "Bus para Pasacaballos", "public_transport": "platform"}, "geometry": {"type": "Point", "coordinates": [-75.544528, 10.4272041]}}, {"type": "Feature", "id": 4961882628, "properties": {"bus": "yes", "highway": "bus_stop", "public_transport": "platform"}, "geometry": {"type": "Point", "coordinates": [-75.4450946, 10.4110082]}}, {"type": "Feature", "id": 4961882629, "properties": {"bus": "yes", "highway": "bus_stop", "public_transport": "platform"}, "geometry": {"type": "Point", "coordinates": [-75.4599741, 10.4024993]}}, {"type": "Feature", "id": 4961883128, "properties": {"bus": "yes", "highway": "bus_stop", "name": "Villas de la Candelaria", "network": "TransCaribe", "public_transport": "platform", "shelter": "yes"}, "geometry": {"type": "Point", "coordinates": [-75.4618838, 10.4019912]}}, {"type": "Feature", "id": 4961883144, "properties": {"bus": "yes", "highway": "bus_stop", "public_transport": "platform"}, "geometry": {"type": "Point", "coordinates": [-75.5048175, 10.3881161]}}, {"type": "Feature", "id": 4961883145, "properties": {"bus": "yes", "highway": "bus_stop", "operator": "TransCaribe", "public_transport": "platform"}, "geometry": {"type": "Point", "coordinates": [-75.5075909, 10.3876882]}}, {"type": "Feature", "id": 4964789922, "properties": {"bus": "yes", "highway": "bus_stop", "name:en": "Shuttle bus to Playa Blanca (book at Mamallena Hostel)", "public_transport": "platform"}, "geometry": {"type": "Point", "coordinates": [-75.5444019, 10.4224873]}}, {"type": "Feature", "id": 5009870523, "properties": {"bench": "yes", "bin": "yes", "bus": "yes", "highway": "bus_stop", "public_transport": "platform", "shelter": "yes", "tactile_paving": "no"}, "geometry": {"type": "Point", "coordinates": [-75.5515856, 10.4271144]}}, {"type": "Feature", "id": 5067529822, "properties": {"bus": "yes", "highway": "bus_stop", "name:en": "Bus to Bus Terminal", "public_transport": "platform"}, "geometry": {"type": "Point", "coordinates": [-75.5412207, 10.4218926]}}, {"type": "Feature", "id": 5305141521, "properties": {"bench": "yes", "bin": "yes", "highway": "bus_stop", "shelter": "yes"}, "geometry": {"type": "Point", "coordinates": [-75.5232479, 10.4425536]}}, {"type": "Feature", "id": 5357684739, "properties": {"bus": "yes", "highway": "bus_stop", "name": "BUS.T103", "public_transport": "platform"}, "geometry": {"type": "Point", "coordinates": [-75.5503361, 10.4147869]}}, {"type": "Feature", "id": 5357684932, "properties": {"bus": "yes", "highway": "bus_stop", "public_transport": "platform"}, "geometry": {"type": "Point", "coordinates": [-75.553554, 10.4221606]}}, {"type": "Feature", "id": 5357685428, "properties": {"bus": "yes", "highway": "bus_stop", "public_transport": "platform"}, "geometry": {"type": "Point", "coordinates": [-75.5624598, 10.3978684]}}, {"type": "Feature", "id": 5529407622, "properties": {"bus": "yes", "highway": "bus_stop", "name": "Parada a Pasacaballos", "name:en": "Bus to Pasacaballos", "public_transport": "platform"}, "geometry": {"type": "Point", "coordinates": [-75.53945, 10.4255363]}}, {"type": "Feature", "id": 5912359788, "properties": {"bench": "yes", "bin": "yes", "bus": "yes", "highway": "bus_stop", "name": "BUS.T103", "public_transport": "platform", "shelter": "yes"}, "geometry": {"type": "Point", "coordinates": [-75.550465, 10.4104491]}}, {"type": "Feature", "id": 5912359886, "properties": {"bench": "yes", "bin": "yes", "bus": "yes", "highway": "bus_stop", "name": "BUS.T103", "public_transport": "platform", "shelter": "yes"}, "geometry": {"type": "Point", "coordinates": [-75.5506436, 10.4104596]}}, {"type": "Feature", "id": 6336917085, "properties": {"bench": "yes", "bin": "no", "highway": "bus_stop", "name:en": "T 102 Bus Stop", "shelter": "yes", "tactile_paving": "no"}, "geometry": {"type": "Point", "coordinates": [-75.5252521, 10.4428827]}}, {"type": "Feature", "id": 6389595014, "properties": {"bus": "yes", "highway": "bus_stop", "public_transport": "platform"}, "geometry": {"type": "Point", "coordinates": [-75.5174826, 10.4474741]}}, {"type": "Feature", "id": 6389595896, "properties": {"bench": "yes", "bus": "yes", "highway": "bus_stop", "public_transport": "platform", "shelter": "yes"}, "geometry": {"type": "Point", "coordinates": [-75.5174012, 10.447321]}}, {"type": "Feature", "id": 6541330685, "properties": {"highway": "bus_stop", "name": "Taxi colectivo al centro 2200COP", "name:en": "Colectivo to the centre 2200COP", "name:fr": "Taxi colectivo pour le centre 2200COP"}, "geometry": {"type": "Point", "coordinates": [-75.5153316, 10.4518807]}}, {"type": "Feature", "id": 7125319373, "properties": {"bus": "yes", "highway": "bus_stop", "public_transport": "platform"}, "geometry": {"type": "Point", "coordinates": [-75.5192875, 10.4018781]}}, {"type": "Feature", "id": 7125328999, "properties": {"bus": "yes", "highway": "bus_stop", "public_transport": "platform"}, "geometry": {"type": "Point", "coordinates": [-75.520548, 10.4054651]}}, {"type": "Feature", "id": 7127192917, "properties": {"description": "Not confirmed If it's possible to embarque", "highway": "bus_stop", "name": "Bus a Playa Blanco?"}, "geometry": {"type": "Point", "coordinates": [-75.4977629, 10.3032602]}}, {"type": "Feature", "id": 7278506485, "properties": {"bus": "yes", "highway": "bus_stop", "name": "moto-taxi to terminal de transporte", "public_transport": "platform"}, "geometry": {"type": "Point", "coordinates": [-75.5446273, 10.4263258]}}, {"type": "Feature", "id": 9951683259, "properties": {"bus": "yes", "highway": "bus_stop", "name": "A105", "public_transport": "platform"}, "geometry": {"type": "Point", "coordinates": [-75.4816197, 10.379757]}}, {"type": "Feature", "id": 9951701812, "properties": {"bench": "yes", "bin": "no", "bus": "yes", "description": "A102\nX106", "highway": "bus_stop", "lit": "no", "name": "La princesa", "public_transport": "platform", "ref:signed": "no", "shelter": "yes"}, "geometry": {"type": "Point", "coordinates": [-75.4646084, 10.3811843]}}, {"type": "Feature", "id": 10572562210, "properties": {"highway": "bus_stop", "name": "Transcribe", "name:en": "\"Glorimar Store\" Transcribe Stop", "name:es": "Parada de Transcribe \"Tienda Glorimar\""}, "geometry": {"type": "Point", "coordinates": [-75.517212, 10.4492323]}}, {"type": "Feature", "id": 10920301905, "properties": {"bench": "yes", "bin": "yes", "highway": "bus_stop", "shelter": "no"}, "geometry": {"type": "Point", "coordinates": [-75.5176588, 10.4445524]}}, {"type": "Feature", "id": 11159488227, "properties": {"bus": "yes", "highway": "bus_stop", "public_transport": "platform", "shelter": "no"}, "geometry": {"type": "Point", "coordinates": [-75.5055126, 10.4035081]}}, {"type": "Feature", "id": 11218814647, "properties": {"bus": "yes", "departures_board": "yes", "highway": "bus_stop", "name": "A107 - Blase de Lezo / Santa Lucía", "operator": "Transcaribe", "public_transport": "platform", "ref": "7", "shelter": "no"}, "geometry": {"type": "Point", "coordinates": [-75.4859004, 10.3849473]}}, {"type": "Feature", "id": 11219143631, "properties": {"bus": "yes", "departures_board": "yes", "highway": "bus_stop", "name": "A107 - Blase de Lezo / Santa Lucía", "operator": "Transcaribe", "public_transport": "platform", "ref": "8"}, "geometry": {"type": "Point", "coordinates": [-75.486454, 10.3832607]}}, {"type": "Feature", "id": 11219143632, "properties": {"bus": "yes", "departures_board": "yes", "highway": "bus_stop", "name": "A107 - Blase de Lezo / Santa Lucía", "operator": "Transcaribe", "public_transport": "platform", "ref": "35"}, "geometry": {"type": "Point", "coordinates": [-75.4862873, 10.3832304]}}, {"type": "Feature", "id": 11327594232, "properties": {"bus": "yes", "departures_board": "yes", "highway": "bus_stop", "name": "A104 | A105", "network": "Transcaribe", "operator": "Transcaribe", "public_transport": "platform", "ref": "3 | 3"}, "geometry": {"type": "Point", "coordinates": [-75.4814168, 10.3887336]}}, {"type": "Feature", "id": 11639266569, "properties": {"bus": "yes", "highway": "bus_stop", "public_transport": "platform", "shelter": "yes"}, "geometry": {"type": "Point", "coordinates": [-75.5407602, 10.4340374]}}, {"type": "Feature", "id": 11639266669, "properties": {"bus": "yes", "highway": "bus_stop", "public_transport": "platform"}, "geometry": {"type": "Point", "coordinates": [-75.5430509, 10.4328831]}}, {"type": "Feature", "id": 11753733979, "properties": {"bus": "yes", "departures_board": "yes", "highway": "bus_stop", "name": "X102", "operator": "Transcaribe", "public_transport": "platform", "ref": "38"}, "geometry": {"type": "Point", "coordinates": [-75.502027, 10.3884127]}}, {"type": "Feature", "id": 11762212699, "properties": {"bus": "yes", "highway": "bus_stop", "name": "X102: Portal / Bosque / Centro", "operator": "Transcaribe", "public_transport": "platform", "ref": "39"}, "geometry": {"type": "Point", "coordinates": [-75.4998093, 10.3887949]}}, {"type": "Feature", "id": 12042756474, "properties": {"bus": "yes", "highway": "bus_stop", "network": "X106", "operator": "Transcaribe", "public_transport": "platform"}, "geometry": {"type": "Point", "coordinates": [-75.468771, 10.3842521]}}, {"type": "Feature", "id": 12059944269, "properties": {"bench": "no", "bin": "no", "bus": "yes", "highway": "bus_stop", "name": "T102 para Chambacú", "name:en": "T102 to Chambacú station", "public_transport": "platform", "shelter": "no", "tactile_paving": "no"}, "geometry": {"type": "Point", "coordinates": [-75.5178701, 10.4435967]}}, {"type": "Feature", "id": 12059944369, "properties": {"bus": "yes", "highway": "bus_stop", "name": "X104 para", "name:en": "X104 to the bus terminal", "name:es": "X104 para Terminal de Transporte", "public_transport": "platform"}, "geometry": {"type": "Point", "coordinates": [-75.5466339, 10.4250282]}}, {"type": "Feature", "id": 12059944569, "properties": {"bus": "yes", "highway": "bus_stop", "name": "X104 para Centro/ Terminal de Transporte", "name:en": "X104 to Centro/ to the bus terminal", "public_transport": "platform"}, "geometry": {"type": "Point", "coordinates": [-75.5405296, 10.4259039]}}, {"type": "Feature", "id": 12092721013, "properties": {"bus": "yes", "highway": "bus_stop", "network": "TransCaribe", "public_transport": "platform", "shelter": "no"}, "geometry": {"type": "Point", "coordinates": [-75.4849884, 10.3923604]}}, {"type": "Feature", "id": 12092721014, "properties": {"bench": "yes", "bus": "yes", "highway": "bus_stop", "network": "TransCaribe", "public_transport": "platform", "shelter": "yes"}, "geometry": {"type": "Point", "coordinates": [-75.4889653, 10.3909351]}}, {"type": "Feature", "id": 12115589561, "properties": {"bus": "yes", "highway": "bus_stop", "name": "La Bodeguita", "network": "Transcaribe", "note": "Parada de autobús para las rutas complementarias de Transcaribe frente al parque de la marina.", "operator": "Transcaribe S.A.", "public_transport": "platform", "shelter": "yes"}, "geometry": {"type": "Point", "coordinates": [-75.5509983, 10.4205079]}}, {"type": "Feature", "id": 12125327573, "properties": {"bus": "yes", "highway": "bus_stop", "network": "TransCaribe", "public_transport": "platform"}, "geometry": {"type": "Point", "coordinates": [-75.5022539, 10.3886194]}}, {"type": "Feature", "id": 12125327574, "properties": {"bench": "yes", "bus": "yes", "highway": "bus_stop", "network": "TransCaribe", "public_transport": "platform", "shelter": "yes"}, "geometry": {"type": "Point", "coordinates": [-75.499956, 10.3889805]}}, {"type": "Feature", "id": 12125327575, "properties": {"bench": "yes", "bus": "yes", "highway": "bus_stop", "network": "TransCaribe", "public_transport": "platform", "shelter": "yes"}, "geometry": {"type": "Point", "coordinates": [-75.4975215, 10.3893838]}}, {"type": "Feature", "id": 12125327576, "properties": {"bench": "yes", "bus": "yes", "highway": "bus_stop", "network": "TransCaribe", "public_transport": "platform", "shelter": "yes"}, "geometry": {"type": "Point", "coordinates": [-75.4959582, 10.3896515]}}, {"type": "Feature", "id": 12125327577, "properties": {"bench": "yes", "bus": "yes", "highway": "bus_stop", "network": "TransCaribe", "public_transport": "platform", "shelter": "yes"}, "geometry": {"type": "Point", "coordinates": [-75.4940197, 10.3899728]}}, {"type": "Feature", "id": 12125327578, "properties": {"bench": "yes", "bus": "yes", "highway": "bus_stop", "network": "TransCaribe", "public_transport": "platform", "shelter": "yes"}, "geometry": {"type": "Point", "coordinates": [-75.4919813, 10.3903264]}}, {"type": "Feature", "id": 12125327579, "properties": {"bus": "yes", "highway": "bus_stop", "public_transport": "platform", "shelter": "yes"}, "geometry": {"type": "Point", "coordinates": [-75.4906807, 10.3906457]}}, {"type": "Feature", "id": 12135927727, "properties": {"bench": "yes", "bus": "yes", "highway": "bus_stop", "network": "TransCaribe", "public_transport": "platform", "shelter": "yes"}, "geometry": {"type": "Point", "coordinates": [-75.4867815, 10.3918184]}}, {"type": "Feature", "id": 12135930533, "properties": {"bus": "yes", "highway": "bus_stop", "network": "TransCaribe", "public_transport": "platform", "shelter": "yes"}, "geometry": {"type": "Point", "coordinates": [-75.4975555, 10.389162]}}, {"type": "Feature", "id": 12135936059, "properties": {"bus": "yes", "highway": "bus_stop", "network": "TransCaribe", "public_transport": "platform", "shelter": "yes"}, "geometry": {"type": "Point", "coordinates": [-75.4959165, 10.3894366]}}, {"type": "Feature", "id": 12135936062, "properties": {"bus": "yes", "highway": "bus_stop", "operator": "TransCaribe", "public_transport": "platform", "shelter": "yes"}, "geometry": {"type": "Point", "coordinates": [-75.4939833, 10.3897565]}}, {"type": "Feature", "id": 12135936063, "properties": {"bus": "yes", "highway": "bus_stop", "operator": "TransCaribe", "public_transport": "platform", "shelter": "yes"}, "geometry": {"type": "Point", "coordinates": [-75.4913987, 10.3902099]}}, {"type": "Feature", "id": 12135936064, "properties": {"bus": "yes", "highway": "bus_stop", "operator": "TransCaribe", "public_transport": "platform", "shelter": "yes"}, "geometry": {"type": "Point", "coordinates": [-75.4888663, 10.3907521]}}, {"type": "Feature", "id": 12135936065, "properties": {"bench": "yes", "bus": "yes", "highway": "bus_stop", "network": "TransCaribe", "public_transport": "platform", "shelter": "yes"}, "geometry": {"type": "Point", "coordinates": [-75.4851692, 10.3924886]}}, {"type": "Feature", "id": 12319662369, "properties": {"bus": "yes", "highway": "bus_stop", "network": "TracsCaribe", "public_transport": "platform", "shelter": "yes"}, "geometry": {"type": "Point", "coordinates": [-75.478567, 10.3904335]}}, {"type": "Feature", "id": 12319713039, "properties": {"bus": "yes", "highway": "bus_stop", "name": "Cementerio", "network": "TransCaribe", "public_transport": "platform"}, "geometry": {"type": "Point", "coordinates": [-75.4741242, 10.3876635]}}, {"type": "Feature", "id": 12351738587, "properties": {"bus": "yes", "highway": "bus_stop", "network": "TransCaribe", "public_transport": "platform", "shelter": "no"}, "geometry": {"type": "Point", "coordinates": [-75.4640906, 10.4015388]}}, {"type": "Feature", "id": 12813209424, "properties": {"bus": "yes", "highway": "bus_stop", "network": "Transcaribe", "public_transport": "platform", "shelter": "yes"}, "geometry": {"type": "Point", "coordinates": [-75.4589608, 10.4009763]}}, {"type": "Feature", "id": 12966410401, "properties": {"bus": "yes", "highway": "bus_stop", "name": "Bus X104", "public_transport": "platform"}, "geometry": {"type": "Point", "coordinates": [-75.4590527, 10.4010424]}}, {"type": "Feature", "id": 13971749120, "properties": {"bus": "yes", "highway": "bus_stop", "name": "Paradero A108 / Santa Lucia - Campestre", "network": "A108", "operator": "Transcaribe SAS", "public_transport": "platform", "shelter": "no"}, "geometry": {"type": "Point", "coordinates": [-75.4966276, 10.3806911]}}, {"type": "Feature", "id": 13971750912, "properties": {"bus": "yes", "highway": "bus_stop", "name": "Paradero X105 / Bocagrande - Ciud. 2000", "network": "X105 / Bocagrande - Ciud. 2000", "operator": "Transcaribe SAS", "public_transport": "platform", "shelter": "no"}, "geometry": {"type": "Point", "coordinates": [-75.497032, 10.3824876]}}, {"type": "Feature", "id": 14077985372, "properties": {"bus": "yes", "departures_board": "timetable", "highway": "bus_stop", "name": "Parada X105 Ciudadela 2000 - Bocagrande", "network": "X105", "operator": "Transcaribe S.A.S", "public_transport": "platform"}, "geometry": {"type": "Point", "coordinates": [-75.4951806, 10.3813658]}}, {"type": "Feature", "id": 14078007603, "properties": {"bus": "yes", "departures_board": "timetable", "highway": "bus_stop", "name": "Parada A108 - C001", "network": "A108 - C001", "operator": "Transcaribe", "public_transport": "platform"}, "geometry": {"type": "Point", "coordinates": [-75.4960179, 10.3820256]}}, {"type": "Feature", "id": 14078007604, "properties": {"bus": "yes", "departures_board": "timetable", "highway": "bus_stop", "name": "Paradero A108 Campestre - Santa Lucía", "operator": "Transcaribe S.A.S", "public_transport": "platform"}, "geometry": {"type": "Point", "coordinates": [-75.4968845, 10.3828355]}}, {"type": "Feature", "id": 14078007605, "properties": {"bus": "yes", "highway": "bus_stop", "name": "Parada Proleca Transcaribe", "operator": "Transcaribe S.A.S", "public_transport": "platform", "shelter": "no"}, "geometry": {"type": "Point", "coordinates": [-75.5012011, 10.3825854]}}, {"type": "Feature", "id": 14078007606, "properties": {"bus": "yes", "highway": "bus_stop", "name": "Paradero Vidrios y Aluminios", "operator": "Transcaribe S.A.S", "public_transport": "platform"}, "geometry": {"type": "Point", "coordinates": [-75.500309, 10.3734542]}}, {"type": "Feature", "id": 14078007607, "properties": {"bus": "yes", "highway": "bus_stop", "name": "Paradero Estibas", "operator": "Transcaribe S.A.S", "public_transport": "platform"}, "geometry": {"type": "Point", "coordinates": [-75.5025271, 10.3725997]}}, {"type": "Feature", "id": 14078007608, "properties": {"bus": "yes", "highway": "bus_stop", "name": "Paradero Parque de Bellavista", "operator": "Transcaribe S.A.S", "public_transport": "platform"}, "geometry": {"type": "Point", "coordinates": [-75.5040746, 10.3728429]}}, {"type": "Feature", "id": 14078007609, "properties": {"bus": "yes", "departures_board": "timetable", "highway": "bus_stop", "name": "Paradero BlocPort", "operator": "Transcaribe S.A.S", "public_transport": "platform"}, "geometry": {"type": "Point", "coordinates": [-75.5041009, 10.3758657]}}]}