{"type": "FeatureCollection", "features": [{"type": "Feature", "id": 11273520512, "properties": {"amenity": "fuel", "brand": "Terpel"}, "geometry": {"type": "Point", "coordinates": [-75.4083028, 10.4909082]}}, {"type": "Feature", "id": 49462176, "properties": {"addr:street": "Calle 25", "amenity": "fuel", "brand": "Texaco", "brand:wikidata": "Q775060", "building": "roof", "fuel:GTL_diesel": "no", "fuel:HGV_diesel": "no", "fuel:biodiesel": "yes", "fuel:diesel": "no", "fuel:octane_100": "yes", "fuel:octane_91": "yes", "layer": "1", "name": "Bomba Puente Manga", "opening_hours": "24/7", "operator": "Gazel", "shop": "convenience", "source": "Kaart Ground Survey 2018"}, "geometry": {"type": "Polygon", "coordinates": [[[-75.5429088, 10.4165018], [-75.5429421, 10.4164539], [-75.5427029, 10.4162934], [-75.5426697, 10.4163414], [-75.5429088, 10.4165018]]]}}, {"type": "Feature", "id": 54926808, "properties": {"amenity": "fuel", "brand": "Terpel", "brand:wikidata": "Q7703003", "fuel:HGV_diesel": "yes", "fuel:biodiesel": "yes", "fuel:cng": "yes", "fuel:diesel": "yes", "fuel:e10": "yes", "fuel:octane_100": "yes", "name": "Terpel Bosque", "opening_hours": "24/7", "operator": "Terpel"}, "geometry": {"type": "LineString", "coordinates": [[-75.5221558, 10.4002206], [-75.5221676, 10.3997736], [-75.5217906, 10.3997366], [-75.5217347, 10.4005796], [-75.5221968, 10.4003164], [-75.5221558, 10.4002206]]}}, {"type": "Feature", "id": 66407810, "properties": {"addr:street": "Corredor Vial de Cartagena", "amenity": "fuel", "fuel:biodiesel": "yes", "fuel:diesel": "yes", "name": "Bomba GNC El Bosque", "opening_hours": "24/7", "operator": "GNC", "source": "Kaart Ground Survey 2018"}, "geometry": {"type": "LineString", "coordinates": [[-75.5216317, 10.3988369], [-75.5216532, 10.3982858], [-75.5211677, 10.3982798], [-75.521163, 10.3983588], [-75.520649, 10.398325], [-75.520621, 10.3987864], [-75.5216317, 10.3988369]]}}, {"type": "Feature", "id": 69019360, "properties": {"addr:street": "Avenida Carrera 31", "amenity": "fuel", "brand": "Texaco", "brand:wikidata": "Q775060", "building": "roof", "layer": "1", "name": "Texaco", "opening_hours": "24/7", "operator": "Texaco", "source": "Kaart Ground Survey 2018"}, "geometry": {"type": "Polygon", "coordinates": [[[-75.5162481, 10.4095402], [-75.5163202, 10.4094071], [-75.5162884, 10.4093905], [-75.5162601, 10.4093756], [-75.516188, 10.4095088], [-75.5162121, 10.4095214], [-75.5162481, 10.4095402]]]}}, {"type": "Feature", "id": 75837321, "properties": {"amenity": "fuel", "brand": "Texaco", "brand:wikidata": "Q775060", "fuel:diesel": "yes", "fuel:octane_91": "yes", "fuel:octane_98": "yes", "name": "Texaco", "opening_hours": "24/7", "operator": "Texaco"}, "geometry": {"type": "LineString", "coordinates": [[-75.4611302, 10.3758292], [-75.4604244, 10.376352], [-75.4598899, 10.3757317], [-75.4603865, 10.375437], [-75.4605532, 10.3756812], [-75.460824, 10.375537], [-75.4611302, 10.3758292]]}}, {"type": "Feature", "id": 94566505, "properties": {"amenity": "fuel", "brand": "Texaco", "brand:wikidata": "Q775060", "building": "roof", "compressed_air": "no", "name": "Texaco", "operator": "Texaco"}, "geometry": {"type": "Polygon", "coordinates": [[[-75.4568121, 10.4000647], [-75.4567363, 10.4000181], [-75.4567516, 10.3999941], [-75.4568217, 10.3998513], [-75.456903, 10.3999045], [-75.4568266, 10.4000419], [-75.4568121, 10.4000647]]]}}, {"type": "Feature", "id": 94675392, "properties": {"addr:street": "Avenida El Bosque", "amenity": "fuel", "brand": "Texaco", "brand:wikidata": "Q775060", "building": "roof", "fuel:biodiesel": "yes", "fuel:diesel": "yes", "fuel:octane_91": "no", "fuel:octane_95": "no", "name": "Bomba SPRC", "opening_hours": "24/7", "operator": "Texaco", "source": "Kaart Ground Survey 2018"}, "geometry": {"type": "Polygon", "coordinates": [[[-75.5277242, 10.4071525], [-75.5276093, 10.4071072], [-75.5277011, 10.4068814], [-75.5278161, 10.4069266], [-75.5277242, 10.4071525]]]}}, {"type": "Feature", "id": 94676898, "properties": {"addr:street": "Avenida El Bosque", "amenity": "fuel", "building": "roof", "name": "gaze1"}, "geometry": {"type": "Polygon", "coordinates": [[[-75.5279036, 10.4071269], [-75.5278402, 10.4070975], [-75.5279083, 10.4069555], [-75.5279717, 10.4069849], [-75.5279036, 10.4071269]]]}}, {"type": "Feature", "id": 95856210, "properties": {"addr:street": "Avenida Carrera 31", "amenity": "fuel", "brand": "Primax", "building": "roof", "layer": "1"}, "geometry": {"type": "Polygon", "coordinates": [[[-75.538196, 10.4244035], [-75.5380121, 10.4242571], [-75.5380531, 10.4242073], [-75.538237, 10.4243538], [-75.538196, 10.4244035]]]}}, {"type": "Feature", "id": 96129779, "properties": {"addr:street": "Avenida Carrera 1", "amenity": "fuel", "brand": "Texaco", "brand:wikidata": "Q775060", "building": "roof", "layer": "1", "name": "Bomba - Marbella", "source": "Kaart Ground Survey 2018"}, "geometry": {"type": "Polygon", "coordinates": [[[-75.5277438, 10.4407965], [-75.5276935, 10.440726], [-75.5278809, 10.4405969], [-75.5279312, 10.4406675], [-75.5277438, 10.4407965]]]}}, {"type": "Feature", "id": 96129782, "properties": {"addr:street": "Avenida Carrera 1", "amenity": "fuel", "brand": "Texaco", "brand:wikidata": "Q775060", "building": "roof", "layer": "1", "name": "Bomba - Marbella", "source": "Kaart Ground Survey 2018"}, "geometry": {"type": "Polygon", "coordinates": [[[-75.5277062, 10.4409144], [-75.5276464, 10.440951], [-75.5275308, 10.4407682], [-75.5275907, 10.4407316], [-75.5277062, 10.4409144]]]}}, {"type": "Feature", "id": 97724719, "properties": {"amenity": "fuel", "brand": "Petromil", "name": "Petromil - Mamomal", "opening_hours": "24/7", "operator": "Petromil", "shop": "yes"}, "geometry": {"type": "LineString", "coordinates": [[-75.5076992, 10.3661235], [-75.5072781, 10.3661279], [-75.5072848, 10.3666385], [-75.5077037, 10.3666429], [-75.5076992, 10.3661235]]}}, {"type": "Feature", "id": 98967583, "properties": {"amenity": "fuel", "brand": "Gazel", "brand:wikidata": "Q62529885", "name": "Gazel"}, "geometry": {"type": "LineString", "coordinates": [[-75.4819914, 10.3935257], [-75.4819649, 10.3934706], [-75.4819073, 10.3934975], [-75.4819338, 10.3935525], [-75.4819914, 10.3935257]]}}, {"type": "Feature", "id": 98967588, "properties": {"amenity": "fuel", "brand": "Primax", "building": "roof", "name": "Primax", "operator": "Primax"}, "geometry": {"type": "Polygon", "coordinates": [[[-75.4825377, 10.3933101], [-75.4824143, 10.3933017], [-75.4824237, 10.3931679], [-75.482432, 10.3930503], [-75.4825554, 10.3930587], [-75.4825475, 10.3931704], [-75.4825377, 10.3933101]]]}}, {"type": "Feature", "id": 99655923, "properties": {"addr:street": "Corredor Vial de Cartagena", "amenity": "fuel", "brand": "Texaco", "brand:wikidata": "Q775060", "building": "roof", "layer": "1", "name": "Primax", "operator": "DISTRACOM EL BOSQUE", "payment:cash": "yes", "payment:credit_cards": "yes", "payment:debit_cards": "yes", "source": "Kaart Ground Survey 2018"}, "geometry": {"type": "Polygon", "coordinates": [[[-75.521636, 10.3986602], [-75.5215277, 10.3986517], [-75.5213276, 10.3986363], [-75.5212056, 10.3986269], [-75.5212132, 10.3985485], [-75.5213316, 10.398559], [-75.5215309, 10.3985767], [-75.5216436, 10.3985867], [-75.521636, 10.3986602]]]}}, {"type": "Feature", "id": 99661988, "properties": {"addr:street": "Corredor Vial de Cartagena", "amenity": "fuel", "brand": "Terpel", "brand:wikidata": "Q7703003", "building": "roof", "name": "Terpel", "operator": "Terpel", "source": "Kaart Ground Survey 2018"}, "geometry": {"type": "Polygon", "coordinates": [[[-75.516539, 10.3883859], [-75.5160735, 10.3883588], [-75.5160758, 10.3883191], [-75.5160785, 10.3882747], [-75.5165441, 10.3883018], [-75.5165415, 10.3883458], [-75.516539, 10.3883859]]]}}, {"type": "Feature", "id": 103492651, "properties": {"addr:street": "Vía Mamonal", "amenity": "fuel", "brand": "Terpel", "building": "roof", "source": "bing"}, "geometry": {"type": "Polygon", "coordinates": [[[-75.4827647, 10.306697], [-75.4826286, 10.3066971], [-75.4825283, 10.3066972], [-75.4825282, 10.3065869], [-75.482624, 10.3065868], [-75.4827647, 10.3065867], [-75.4827647, 10.306697]]]}}, {"type": "Feature", "id": 103601667, "properties": {"addr:street": "Variante de Cartagena", "amenity": "fuel", "brand": "Biomax", "brand:wikidata": "Q62274413", "building": "roof", "name": "Biomax", "source": "bing"}, "geometry": {"type": "Polygon", "coordinates": [[[-75.4474577, 10.3945182], [-75.4473829, 10.3944952], [-75.4474759, 10.394196], [-75.4474881, 10.3941836], [-75.4475128, 10.3941847], [-75.4475359, 10.394191], [-75.4475465, 10.3942022], [-75.4475528, 10.3942211], [-75.4474577, 10.3945182]]]}}, {"type": "Feature", "id": 103601673, "properties": {"addr:street": "Variante de Cartagena", "amenity": "fuel", "brand": "Terpel", "brand:wikidata": "Q7703003", "building": "roof", "name": "Terpel", "source": "bing"}, "geometry": {"type": "Polygon", "coordinates": [[[-75.44731, 10.3947263], [-75.4473204, 10.3947182], [-75.4473373, 10.394715], [-75.4473622, 10.3947194], [-75.4473779, 10.3947343], [-75.4473799, 10.3947544], [-75.4473085, 10.3949797], [-75.4473054, 10.3949934], [-75.4472888, 10.3950003], [-75.4472662, 10.3949993], [-75.4472405, 10.3949863], [-75.4472345, 10.3949701], [-75.44731, 10.3947263]]]}}, {"type": "Feature", "id": 120492136, "properties": {"addr:street": "Vía Mamonal", "amenity": "fuel", "brand": "Brio", "building": "roof", "layer": "1", "source": "bing"}, "geometry": {"type": "Polygon", "coordinates": [[[-75.4830455, 10.3242385], [-75.4829863, 10.3242422], [-75.4828441, 10.3242475], [-75.4827923, 10.3242461], [-75.48279, 10.3241718], [-75.4828455, 10.3241697], [-75.4829822, 10.3241644], [-75.4830432, 10.3241642], [-75.4830455, 10.3242385]]]}}, {"type": "Feature", "id": 125155420, "properties": {"addr:street": "Variante de Cartagena", "amenity": "fuel", "brand": "Texaco", "brand:wikidata": "Q775060", "building": "roof", "name": "Texaco"}, "geometry": {"type": "Polygon", "coordinates": [[[-75.4871516, 10.3435409], [-75.4865136, 10.3438431], [-75.4864807, 10.343776], [-75.4871187, 10.3434738], [-75.4871516, 10.3435409]]]}}, {"type": "Feature", "id": 136014588, "properties": {"addr:street": "Carretera de la Cordialidad / Troncal del Caribe", "amenity": "fuel", "brand": "Terpel", "brand:wikidata": "Q7703003", "building": "roof", "layer": "1", "name": "Terpel", "source": "bing"}, "geometry": {"type": "Polygon", "coordinates": [[[-75.4597281, 10.4023633], [-75.4596567, 10.4023997], [-75.4596318, 10.4023526], [-75.4595359, 10.4021709], [-75.4596073, 10.4021344], [-75.4597036, 10.402317], [-75.4597281, 10.4023633]]]}}, {"type": "Feature", "id": 185599087, "properties": {"amenity": "fuel", "brand": "Texaco", "brand:wikidata": "Q775060", "building": "roof", "name": "Texaco", "operator": "Texaco", "self_service": "no"}, "geometry": {"type": "Polygon", "coordinates": [[[-75.4838351, 10.3932601], [-75.4837664, 10.39322], [-75.4837064, 10.3931849], [-75.4837481, 10.3931158], [-75.4838086, 10.3931511], [-75.4838768, 10.393191], [-75.4838351, 10.3932601]]]}}, {"type": "Feature", "id": 232677051, "properties": {"addr:street": "Avenida Carrera 31", "amenity": "fuel", "brand": "Texaco", "brand:wikidata": "Q775060", "name": "EDS", "opening_hours": "24/7", "operator": "Texaco", "source": "Kaart Ground Survey 2018"}, "geometry": {"type": "LineString", "coordinates": [[-75.4969159, 10.40319], [-75.4972445, 10.4026973], [-75.4969017, 10.4024762], [-75.4965732, 10.4029689], [-75.4969159, 10.40319]]}}, {"type": "Feature", "id": 558027763, "properties": {"addr:street": "Corredor Vial de Cartagena", "amenity": "fuel", "building": "roof", "layer": "1", "name": "Petromil"}, "geometry": {"type": "Polygon", "coordinates": [[[-75.5115132, 10.3874009], [-75.5114875, 10.3874443], [-75.5114594, 10.3874919], [-75.5113117, 10.3874074], [-75.5113388, 10.3873616], [-75.5113655, 10.3873164], [-75.5115132, 10.3874009]]]}}, {"type": "Feature", "id": 558027769, "properties": {"addr:street": "Corredor Vial de Cartagena", "amenity": "fuel", "brand": "Primax", "building": "roof", "layer": "1", "name": "Primax"}, "geometry": {"type": "Polygon", "coordinates": [[[-75.5206319, 10.3886344], [-75.520563, 10.3886321], [-75.5205665, 10.388529], [-75.5205683, 10.3884765], [-75.5206373, 10.3884788], [-75.5206355, 10.3885309], [-75.5206319, 10.3886344]]]}}, {"type": "Feature", "id": 558867871, "properties": {"amenity": "fuel", "brand": "Primax", "building": "roof", "name": "Primax", "operator": "Primax", "self_service": "no"}, "geometry": {"type": "Polygon", "coordinates": [[[-75.5024631, 10.3882563], [-75.5023919, 10.3882671], [-75.5023809, 10.3881965], [-75.5023678, 10.3881128], [-75.5023595, 10.3880598], [-75.5024308, 10.388049], [-75.5024393, 10.3881035], [-75.5024519, 10.3881846], [-75.5024631, 10.3882563]]]}}, {"type": "Feature", "id": 558867877, "properties": {"addr:street": "Vía Mamonal", "amenity": "fuel", "brand": "Terpel", "brand:wikidata": "Q7703003", "building": "roof", "name": "Terpel"}, "geometry": {"type": "Polygon", "coordinates": [[[-75.5018784, 10.3862015], [-75.5018999, 10.3862029], [-75.501928, 10.3862306], [-75.5019294, 10.3862504], [-75.5018772, 10.3863015], [-75.5017765, 10.3863849], [-75.5017577, 10.3863823], [-75.5017269, 10.3863519], [-75.5017322, 10.3863255], [-75.5018277, 10.3862405], [-75.5018784, 10.3862015]]]}}, {"type": "Feature", "id": 558950022, "properties": {"addr:street": "Corredor de Carga - Mamonal", "amenity": "fuel", "brand": "Texaco", "brand:wikidata": "Q775060", "building": "yes", "name": "Texaco"}, "geometry": {"type": "Polygon", "coordinates": [[[-75.4962446, 10.353731], [-75.4961769, 10.3537543], [-75.4960194, 10.3538085], [-75.4959888, 10.3537224], [-75.4961551, 10.3536652], [-75.496214, 10.353645], [-75.4962446, 10.353731]]]}}, {"type": "Feature", "id": 558950024, "properties": {"addr:street": "Corredor de Carga - Mamonal", "amenity": "fuel", "brand": "Gazel", "brand:wikidata": "Q62529885", "building": "roof", "name": "Gazel", "operator": "Gazel"}, "geometry": {"type": "Polygon", "coordinates": [[[-75.4951638, 10.3501352], [-75.4950984, 10.3501346], [-75.4950114, 10.3501337], [-75.4950121, 10.3500695], [-75.4950984, 10.3500704], [-75.4951645, 10.350071], [-75.4951638, 10.3501352]]]}}, {"type": "Feature", "id": 558960461, "properties": {"addr:street": "Variante de Cartagena", "amenity": "fuel", "building": "yes", "name": "Petromil"}, "geometry": {"type": "Polygon", "coordinates": [[[-75.4940638, 10.3421958], [-75.4939544, 10.3421966], [-75.4939536, 10.3420944], [-75.4939524, 10.3419373], [-75.4940618, 10.3419365], [-75.494063, 10.3420926], [-75.4940638, 10.3421958]]]}}, {"type": "Feature", "id": 558965729, "properties": {"addr:street": "Avenida Pedro de Heredia", "amenity": "fuel", "brand": "Texaco", "brand:wikidata": "Q775060", "building": "roof", "name": "Texaco"}, "geometry": {"type": "Polygon", "coordinates": [[[-75.5295528, 10.417971], [-75.5296093, 10.4180133], [-75.5295342, 10.4181103], [-75.5294832, 10.4181762], [-75.5294267, 10.4181339], [-75.5294804, 10.4180645], [-75.5295528, 10.417971]]]}}, {"type": "Feature", "id": 558965730, "properties": {"addr:street": "Avenida Pedro de Heredia", "amenity": "fuel", "brand": "Texaco", "brand:wikidata": "Q775060", "building": "roof", "name": "Texaco"}, "geometry": {"type": "Polygon", "coordinates": [[[-75.5294779, 10.4178814], [-75.529525, 10.417921], [-75.5294344, 10.4180253], [-75.5293768, 10.4180917], [-75.5293297, 10.4180522], [-75.5293876, 10.4179855], [-75.5294779, 10.4178814]]]}}, {"type": "Feature", "id": 558971177, "properties": {"addr:street": "Variante de Cartagena", "amenity": "fuel", "building": "roof", "name": "Tarpel", "operator": "Tarpel"}, "geometry": {"type": "Polygon", "coordinates": [[[-75.4779263, 10.3531161], [-75.4778458, 10.3531709], [-75.4777785, 10.3530753], [-75.4776336, 10.3528694], [-75.4777141, 10.3528145], [-75.4778597, 10.3530214], [-75.4779263, 10.3531161]]]}}, {"type": "Feature", "id": 558971217, "properties": {"addr:street": "Vìa Mamonal", "amenity": "fuel", "brand": "Terpel", "brand:wikidata": "Q7703003", "building": "roof", "layer": "1", "name": "Terpel"}, "geometry": {"type": "Polygon", "coordinates": [[[-75.5083841, 10.3653079], [-75.508065, 10.3653074], [-75.5080112, 10.3653073], [-75.5080114, 10.3652222], [-75.5080626, 10.3652224], [-75.5083842, 10.3652228], [-75.5083841, 10.3653079]]]}}, {"type": "Feature", "id": 558971218, "properties": {"addr:street": "Vìa Mamonal", "amenity": "fuel", "building": "roof", "layer": "1", "name": "Terpel"}, "geometry": {"type": "Polygon", "coordinates": [[[-75.5080882, 10.3632121], [-75.5080866, 10.3631031], [-75.5082427, 10.3630999], [-75.5083454, 10.3630993], [-75.508347, 10.3632084], [-75.5082464, 10.3632078], [-75.5080882, 10.3632121]]]}}, {"type": "Feature", "id": 559166699, "properties": {"addr:street": "Calle 30", "amenity": "fuel", "brand": "Petromil", "building": "roof", "source": "Kaart Ground Survey 2018"}, "geometry": {"type": "Polygon", "coordinates": [[[-75.5089527, 10.4048836], [-75.5089147, 10.4048616], [-75.5087891, 10.4047886], [-75.5089004, 10.4046032], [-75.509064, 10.4046982], [-75.5090288, 10.4047568], [-75.5089527, 10.4048836]]]}}, {"type": "Feature", "id": 559249345, "properties": {"addr:street": "Avenida Carrera 31", "amenity": "fuel", "brand": "Gazel", "brand:wikidata": "Q62529885", "building": "roof", "layer": "1", "name": "Gazel"}, "geometry": {"type": "Polygon", "coordinates": [[[-75.5384762, 10.4246119], [-75.5382923, 10.4244654], [-75.5383333, 10.4244157], [-75.5385171, 10.4245621], [-75.5384762, 10.4246119]]]}}, {"type": "Feature", "id": 559286954, "properties": {"addr:street": "Carrera 17", "amenity": "fuel", "brand": "Petromil Gas", "building": "yes"}, "geometry": {"type": "Polygon", "coordinates": [[[-75.5285248, 10.4353793], [-75.528555, 10.4354228], [-75.5285134, 10.4354507], [-75.5284832, 10.4354072], [-75.5285248, 10.4353793]]]}}, {"type": "Feature", "id": 559286955, "properties": {"addr:street": "Carrera 17", "amenity": "fuel", "brand": "Petromil Gas", "building": "yes"}, "geometry": {"type": "Polygon", "coordinates": [[[-75.5287213, 10.4352071], [-75.5287667, 10.4352546], [-75.5286205, 10.4353898], [-75.5285751, 10.4353423], [-75.5287213, 10.4352071]]]}}, {"type": "Feature", "id": 559286956, "properties": {"addr:street": "Carrera 17", "amenity": "fuel", "brand": "Petromil Gas", "building": "roof", "layer": "1"}, "geometry": {"type": "Polygon", "coordinates": [[[-75.5289154, 10.4350839], [-75.5289743, 10.435173], [-75.5288895, 10.4352272], [-75.5288596, 10.4352463], [-75.5288292, 10.4352002], [-75.5288599, 10.4351806], [-75.5288843, 10.435165], [-75.5288558, 10.4351219], [-75.5289154, 10.4350839]]]}}, {"type": "Feature", "id": 559310169, "properties": {"addr:street": "Avenida Carrera 31", "amenity": "fuel", "brand": "Terpel", "brand:wikidata": "Q7703003", "building": "roof", "name": "Terpel"}, "geometry": {"type": "Polygon", "coordinates": [[[-75.4651174, 10.3818534], [-75.465159, 10.3818], [-75.4653776, 10.3819645], [-75.4654036, 10.3819842], [-75.4653621, 10.3820377], [-75.4653365, 10.3820182], [-75.4651174, 10.3818534]]]}}, {"type": "Feature", "id": 559310170, "properties": {"addr:street": "Avenida Carrera 31", "amenity": "fuel", "brand": "Combugas", "building": "roof"}, "geometry": {"type": "Polygon", "coordinates": [[[-75.4650993, 10.3818449], [-75.464931, 10.3817076], [-75.4649766, 10.3816535], [-75.4651449, 10.3817908], [-75.4650993, 10.3818449]]]}}, {"type": "Feature", "id": 559325766, "properties": {"addr:street": "Avenida Carrera 31", "amenity": "fuel", "brand": "Terpel", "brand:wikidata": "Q7703003", "building": "roof", "name": "Terpel"}, "geometry": {"type": "Polygon", "coordinates": [[[-75.4649478, 10.3809471], [-75.4648927, 10.3809387], [-75.4647808, 10.3809218], [-75.4647977, 10.380814], [-75.4648913, 10.3808282], [-75.4649647, 10.3808394], [-75.4649478, 10.3809471]]]}}, {"type": "Feature", "id": 559325781, "properties": {"addr:housenumber": "kilometro 1", "addr:street": "Vía Turbaco", "amenity": "fuel", "brand": "Texaco", "brand:wikidata": "Q775060", "building": "yes", "email": "texgastecnologica@gmail.com", "internet_access": "wlan", "name": "Texaco", "name:en": "Estacion Texaco Tecnologica", "name:es": "Estacion Texaco Tecnologica", "opening_hours": "Mo-Su 05:00-21:00", "operator": "Factor Energia SAS", "phone": "+57 5 6618386"}, "geometry": {"type": "Polygon", "coordinates": [[[-75.4603846, 10.3757035], [-75.4602838, 10.375764], [-75.460154, 10.375842], [-75.4600958, 10.3757599], [-75.4600749, 10.3757305], [-75.4601245, 10.3756996], [-75.4601461, 10.3757238], [-75.4601755, 10.3757569], [-75.4602477, 10.3757141], [-75.4603498, 10.3756534], [-75.4603846, 10.3757035]]]}}, {"type": "Feature", "id": 559325784, "properties": {"addr:street": "Vía Turbaco", "amenity": "fuel", "building": "yes", "name": "Petromil"}, "geometry": {"type": "Polygon", "coordinates": [[[-75.4604356, 10.3761487], [-75.4603218, 10.3760089], [-75.4603822, 10.3759614], [-75.4604959, 10.3761012], [-75.4604356, 10.3761487]]]}}, {"type": "Feature", "id": 559981552, "properties": {"addr:street": "Avenida Pedro de Heredia", "amenity": "fuel", "brand": "Terpel", "brand:wikidata": "Q7703003", "building": "roof", "name": "Terpel", "source": "Kaart Ground Survey 2018"}, "geometry": {"type": "Polygon", "coordinates": [[[-75.5054472, 10.4073749], [-75.5054063, 10.4073185], [-75.5053438, 10.4073623], [-75.5053003, 10.4073024], [-75.5052332, 10.4073496], [-75.5051876, 10.4072867], [-75.5051615, 10.407305], [-75.5051288, 10.4073279], [-75.505093, 10.4072785], [-75.5051597, 10.4072318], [-75.5051686, 10.4072442], [-75.505204, 10.407293], [-75.5052667, 10.407249], [-75.5053067, 10.4073041], [-75.5053648, 10.4072634], [-75.5054082, 10.4073197], [-75.5054672, 10.4072795], [-75.5055063, 10.4073335], [-75.5054472, 10.4073749]]]}}, {"type": "Feature", "id": 560134514, "properties": {"addr:street": "Avenida Pedro de Heredia", "amenity": "fuel", "brand": "Terpel", "brand:wikidata": "Q7703003", "building": "roof", "layer": "1", "name": "Terpel"}, "geometry": {"type": "Polygon", "coordinates": [[[-75.4700855, 10.3846959], [-75.4699175, 10.3845855], [-75.4699609, 10.3845216], [-75.4701289, 10.384632], [-75.4700855, 10.3846959]]]}}, {"type": "Feature", "id": 560134515, "properties": {"addr:street": "Avenida Pedro de Heredia", "amenity": "fuel", "brand": "Terpel", "brand:wikidata": "Q7703003", "building": "roof", "layer": "1", "name": "Terpel"}, "geometry": {"type": "Polygon", "coordinates": [[[-75.4697993, 10.3846346], [-75.4695693, 10.3844781], [-75.4696097, 10.3844206], [-75.4698397, 10.3845771], [-75.4697993, 10.3846346]]]}}, {"type": "Feature", "id": 560802406, "properties": {"addr:street": "Avenida Carrera 31", "amenity": "fuel", "brand": "Texaco", "brand:wikidata": "Q775060", "building": "roof", "layer": "1", "name": "Texaco", "source": "Kaart Ground Survey 2018"}, "geometry": {"type": "Polygon", "coordinates": [[[-75.5090626, 10.4074163], [-75.5089473, 10.4073952], [-75.5089595, 10.4073303], [-75.5090749, 10.4073514], [-75.5090626, 10.4074163]]]}}, {"type": "Feature", "id": 560802407, "properties": {"addr:street": "Avenida Carrera 31", "amenity": "fuel", "brand": "Texaco", "brand:wikidata": "Q775060", "building": "roof", "layer": "1", "name": "Texaco", "source": "Kaart Ground Survey 2018"}, "geometry": {"type": "Polygon", "coordinates": [[[-75.5092545, 10.4074544], [-75.5091392, 10.4074333], [-75.5091514, 10.4073685], [-75.5092668, 10.4073896], [-75.5092545, 10.4074544]]]}}, {"type": "Feature", "id": 612661293, "properties": {"amenity": "fuel", "brand": "Esso", "brand:wikidata": "Q867662", "fuel:diesel": "yes", "fuel:octane_80": "yes", "fuel:octane_95": "yes", "name": "Esso", "opening_hours": "24/7", "shop": "no"}, "geometry": {"type": "LineString", "coordinates": [[-75.5314169, 10.4206617], [-75.5315825, 10.4203372], [-75.5312687, 10.4201908], [-75.5311574, 10.4203504], [-75.5314169, 10.4206617]]}}, {"type": "Feature", "id": 612661295, "properties": {"addr:street": "Calle 32", "amenity": "fuel", "brand": "Mobil", "brand:wikidata": "Q109676002", "building": "roof", "name": "Mobil"}, "geometry": {"type": "Polygon", "coordinates": [[[-75.5312862, 10.4204784], [-75.5312426, 10.4204258], [-75.5312867, 10.4203905], [-75.5313513, 10.4203388], [-75.5313948, 10.4203913], [-75.5313306, 10.4204428], [-75.5312862, 10.4204784]]]}}, {"type": "Feature", "id": 628426386, "properties": {"addr:street": "Vía Turbaco", "amenity": "fuel", "brand": "Terpel", "brand:wikidata": "Q7703003", "building": "roof", "layer": "1", "name": "Terpel"}, "geometry": {"type": "Polygon", "coordinates": [[[-75.4454049, 10.3585191], [-75.4453289, 10.3586028], [-75.445263, 10.3586767], [-75.4452121, 10.3586339], [-75.4452768, 10.3585614], [-75.4453556, 10.3584733], [-75.4454049, 10.3585191]]]}}, {"type": "Feature", "id": 628455544, "properties": {"addr:street": "Calle 27", "amenity": "fuel", "brand": "Distracom", "building": "roof"}, "geometry": {"type": "Polygon", "coordinates": [[[-75.4222737, 10.3403554], [-75.4221908, 10.3403246], [-75.42224, 10.3401967], [-75.4222577, 10.3401508], [-75.4223406, 10.3401817], [-75.4223221, 10.3402296], [-75.4222737, 10.3403554]]]}}, {"type": "Feature", "id": 628457613, "properties": {"addr:street": "Calle 27", "amenity": "fuel", "brand": "Texaco", "building": "roof", "layer": "1"}, "geometry": {"type": "Polygon", "coordinates": [[[-75.4215486, 10.3396184], [-75.4213246, 10.3395362], [-75.4213537, 10.3394593], [-75.4213838, 10.3393799], [-75.4216078, 10.3394621], [-75.4215779, 10.3395411], [-75.4215486, 10.3396184]]]}}, {"type": "Feature", "id": 1022648097, "properties": {"addr:street": "Variante de Cartagena", "amenity": "fuel", "building": "roof", "name": "Brío"}, "geometry": {"type": "Polygon", "coordinates": [[[-75.4490832, 10.3883014], [-75.4489493, 10.3882822], [-75.4489601, 10.3882097], [-75.4490939, 10.3882288], [-75.4490832, 10.3883014]]]}}, {"type": "Feature", "id": 1022669515, "properties": {"addr:street": "Calle 32", "amenity": "fuel", "brand": "Texaco", "brand:wikidata": "Q775060", "building": "roof", "name": "Texaco", "operator": "Texaco"}, "geometry": {"type": "Polygon", "coordinates": [[[-75.4837668, 10.4059534], [-75.4837453, 10.4058953], [-75.4835911, 10.4059573], [-75.4836206, 10.4060141], [-75.4837376, 10.4059655], [-75.4837668, 10.4059534]]]}}, {"type": "Feature", "id": 1022675287, "properties": {"addr:street": "Calle 32", "amenity": "fuel", "brand": "Terpel", "brand:wikidata": "Q7703003", "building": "roof", "name": "terpel"}, "geometry": {"type": "Polygon", "coordinates": [[[-75.4733945, 10.4023604], [-75.4732857, 10.4023358], [-75.4732305, 10.4023233], [-75.4732457, 10.4022584], [-75.4732614, 10.402262], [-75.4734097, 10.4022956], [-75.4733945, 10.4023604]]]}}, {"type": "Feature", "id": 1023040350, "properties": {"addr:street": "Avenida Transversal 54", "amenity": "fuel", "brand": "Texaco", "brand:wikidata": "Q775060", "building": "roof", "name": "Texaco", "operator": "Texaco"}, "geometry": {"type": "Polygon", "coordinates": [[[-75.5149351, 10.3888171], [-75.5149282, 10.388924], [-75.5150083, 10.3889289], [-75.515015, 10.3888243], [-75.5150238, 10.3886873], [-75.5149437, 10.3886823], [-75.5149351, 10.3888171]]]}}, {"type": "Feature", "id": 1023068076, "properties": {"addr:street": "Avenida Transversal 54", "amenity": "fuel", "brand": "Texaco", "brand:wikidata": "Q775060", "building": "roof", "name": "Texaco", "operator": "Texaco"}, "geometry": {"type": "Polygon", "coordinates": [[[-75.5121395, 10.3881818], [-75.5121291, 10.3882497], [-75.5121999, 10.3882601], [-75.5122108, 10.3881888], [-75.5122245, 10.3880988], [-75.5121538, 10.3880883], [-75.5121395, 10.3881818]]]}}, {"type": "Feature", "id": 1023394924, "properties": {"addr:street": "Avenida El Bosque", "amenity": "fuel", "building": "roof", "layer": "1", "name": "Coral"}, "geometry": {"type": "Polygon", "coordinates": [[[-75.5209874, 10.4050771], [-75.520923, 10.4050669], [-75.520865, 10.4050582], [-75.520875, 10.4049956], [-75.5209317, 10.4050043], [-75.5209973, 10.4050144], [-75.5209874, 10.4050771]]]}}, {"type": "Feature", "id": 1024300932, "properties": {"addr:street": "Avenida Carrera 31", "amenity": "fuel", "brand": "Terpel", "brand:wikidata": "Q7703003", "building": "yes", "name": "Terpel"}, "geometry": {"type": "Polygon", "coordinates": [[[-75.4647676, 10.3805624], [-75.4646998, 10.3805534], [-75.4647096, 10.3804812], [-75.4647774, 10.3804901], [-75.4647676, 10.3805624]]]}}, {"type": "Feature", "id": 1024300933, "properties": {"addr:street": "Avenida Carrera 31", "amenity": "fuel", "brand": "Terpel", "brand:wikidata": "Q7703003", "building": "yes", "name": "Terpel"}, "geometry": {"type": "Polygon", "coordinates": [[[-75.4648487, 10.380497], [-75.4647809, 10.3804882], [-75.4647907, 10.3804159], [-75.4648585, 10.3804247], [-75.4648487, 10.380497]]]}}, {"type": "Feature", "id": 1024300934, "properties": {"addr:street": "Avenida Carrera 31", "amenity": "fuel", "brand": "Terpel", "brand:wikidata": "Q7703003", "building": "yes", "name": "Terpel"}, "geometry": {"type": "Polygon", "coordinates": [[[-75.4646865, 10.3806288], [-75.4646187, 10.38062], [-75.4646284, 10.3805477], [-75.4646962, 10.3805565], [-75.4646865, 10.3806288]]]}}, {"type": "Feature", "id": 1024990391, "properties": {"addr:street": "Carrera 14A", "amenity": "fuel", "brand": "Primax", "building": "roof"}, "geometry": {"type": "Polygon", "coordinates": [[[-75.4141357, 10.3365701], [-75.4138371, 10.3363122], [-75.4138803, 10.3362638], [-75.4141789, 10.3365216], [-75.4141357, 10.3365701]]]}}, {"type": "Feature", "id": 1024993560, "properties": {"addr:street": "Calle 27", "amenity": "fuel", "brand": "Terpel", "building": "roof", "layer": "1"}, "geometry": {"type": "Polygon", "coordinates": [[[-75.4194025, 10.3388185], [-75.4193267, 10.3387954], [-75.4193532, 10.3387117], [-75.4193754, 10.338641], [-75.4194511, 10.3386641], [-75.4194293, 10.3387341], [-75.4194025, 10.3388185]]]}}, {"type": "Feature", "id": 1024993561, "properties": {"addr:street": "Calle 27", "amenity": "fuel", "building": "roof", "fuel:cng": "yes", "layer": "1", "name": "gazel"}, "geometry": {"type": "Polygon", "coordinates": [[[-75.4190391, 10.3388126], [-75.418972, 10.3388086], [-75.4189745, 10.3387679], [-75.4189766, 10.3387332], [-75.4190437, 10.3387372], [-75.4190415, 10.338774], [-75.4190391, 10.3388126]]]}}, {"type": "Feature", "id": 1025022649, "properties": {"addr:street": "Variante de Cartagena", "amenity": "fuel", "brand": "Ecos", "building": "roof", "layer": "1"}, "geometry": {"type": "Polygon", "coordinates": [[[-75.4515438, 10.3787467], [-75.4514675, 10.3787336], [-75.4513896, 10.3787203], [-75.451409, 10.3786106], [-75.4514908, 10.3786246], [-75.4515632, 10.378637], [-75.4515438, 10.3787467]]]}}, {"type": "Feature", "id": 1026474427, "properties": {"addr:street": "Vía Mamonal", "amenity": "fuel", "brand": "Primex", "building": "roof"}, "geometry": {"type": "Polygon", "coordinates": [[[-75.5016866, 10.3193123], [-75.5016457, 10.3193216], [-75.5016162, 10.3193308], [-75.5015939, 10.3192484], [-75.5016223, 10.3192411], [-75.5016643, 10.3192299], [-75.5016866, 10.3193123]]]}}, {"type": "Feature", "id": 1026787043, "properties": {"addr:street": "Diagonal 32", "amenity": "fuel", "building": "roof", "name": "PETROMIL"}, "geometry": {"type": "Polygon", "coordinates": [[[-75.4794937, 10.398208], [-75.479452, 10.39822], [-75.4794212, 10.3982288], [-75.479362, 10.3980299], [-75.4793976, 10.3980203], [-75.4794345, 10.398009], [-75.4794937, 10.398208]]]}}, {"type": "Feature", "id": 1085121787, "properties": {"amenity": "fuel", "building": "roof", "name": "Primax - Éxito Ramblas", "name:en": "Gas station ESSO", "operator": "Primax"}, "geometry": {"type": "Polygon", "coordinates": [[[-75.4697576, 10.5156286], [-75.4696866, 10.5155941], [-75.4697014, 10.5155647], [-75.4697853, 10.5153975], [-75.4697912, 10.5153858], [-75.4698622, 10.5154203], [-75.4698554, 10.5154339], [-75.4697715, 10.5156009], [-75.4697576, 10.5156286]]]}}, {"type": "Feature", "id": 1175330822, "properties": {"amenity": "fuel", "building": "roof", "id": "690", "layer": "1", "operator": "Primax"}, "geometry": {"type": "Polygon", "coordinates": [[[-75.5515299, 10.4076915], [-75.5515917, 10.4077427], [-75.5516503, 10.4077912], [-75.5516078, 10.4078425], [-75.5515491, 10.4077938], [-75.5514874, 10.4077427], [-75.5515299, 10.4076915]]]}}, {"type": "Feature", "id": 1353435219, "properties": {"amenity": "fuel", "building": "roof", "layer": "1", "operator": "Terpel"}, "geometry": {"type": "Polygon", "coordinates": [[[-75.4608111, 10.5350955], [-75.4607097, 10.5350673], [-75.4606157, 10.535041], [-75.4606044, 10.5350224], [-75.4606044, 10.534997], [-75.4606162, 10.5349781], [-75.4606364, 10.5349671], [-75.4607335, 10.5349942], [-75.4608322, 10.5350215], [-75.4608442, 10.5350421], [-75.4608439, 10.5350645], [-75.4608311, 10.5350852], [-75.4608111, 10.5350955]]]}}, {"type": "Feature", "id": 1353694333, "properties": {"addr:street": "Avenida Carrera 22", "amenity": "fuel", "brand": "Primax", "landuse": "retail", "operator": "Primax"}, "geometry": {"type": "LineString", "coordinates": [[-75.5213068, 10.4082077], [-75.5212949, 10.4081703], [-75.5212859, 10.4081425], [-75.5211156, 10.4081954], [-75.5212557, 10.4086321], [-75.521426, 10.4085792], [-75.5214174, 10.4085522], [-75.5213068, 10.4082077]]}}, {"type": "Feature", "id": 1353756333, "properties": {"addr:street": "Avenida Carrera 31", "amenity": "fuel", "landuse": "retail", "operator": "Primax", "source": "Kaart Ground Survey 2018"}, "geometry": {"type": "LineString", "coordinates": [[-75.5049482, 10.4067316], [-75.5041677, 10.4065918], [-75.5042294, 10.4061736], [-75.5045164, 10.4062211], [-75.5044855, 10.4064111], [-75.5047537, 10.4064572], [-75.5049482, 10.4067316]]}}, {"type": "Feature", "id": 1353988431, "properties": {"addr:street": "Carretera de la Cordialidad / Troncal del Caribe", "amenity": "fuel", "brand": "Mobil", "brand:wikidata": "Q109676002", "name": "Mobil", "operator": "Primax"}, "geometry": {"type": "LineString", "coordinates": [[-75.4766838, 10.3955393], [-75.4762467, 10.3956968], [-75.4762955, 10.3958278], [-75.4767326, 10.3956704], [-75.4766838, 10.3955393]]}}, {"type": "Feature", "id": 1354003521, "properties": {"addr:street": "Carretera de la Cordialidad / Troncal del Caribe", "amenity": "fuel", "landuse": "retail", "operator": "Pretromil", "source": "bing"}, "geometry": {"type": "LineString", "coordinates": [[-75.4628523, 10.4015451], [-75.4625666, 10.4013103], [-75.4619671, 10.4014277], [-75.4620235, 10.4017363], [-75.4628523, 10.4015451]]}}, {"type": "Feature", "id": 1354011941, "properties": {"amenity": "fuel", "brand": "Terpel", "brand:wikidata": "Q7703003", "building": "roof", "layer": "1", "name": "Terpel", "operator": "Terpel"}, "geometry": {"type": "Polygon", "coordinates": [[[-75.4496234, 10.3891386], [-75.4495208, 10.3891231], [-75.4494883, 10.3891183], [-75.449475, 10.3891035], [-75.4494707, 10.3890919], [-75.4494705, 10.3890784], [-75.4494774, 10.3890616], [-75.4494898, 10.3890503], [-75.4495042, 10.3890444], [-75.4495356, 10.3890492], [-75.4496369, 10.3890647], [-75.4496495, 10.3890778], [-75.4496559, 10.3890958], [-75.4496533, 10.3891136], [-75.4496446, 10.3891268], [-75.4496356, 10.3891336], [-75.4496234, 10.3891386]]]}}, {"type": "Feature", "id": 1354956445, "properties": {"amenity": "fuel", "building": "roof", "layer": "1", "operator": "Petromil"}, "geometry": {"type": "Polygon", "coordinates": [[[-75.5366077, 10.4313532], [-75.5365537, 10.4313968], [-75.5365051, 10.4313387], [-75.5364612, 10.431286], [-75.5365151, 10.4312424], [-75.5365606, 10.4312967], [-75.5366077, 10.4313532]]]}}, {"type": "Feature", "id": 1355475881, "properties": {"addr:street": "Corredor Vial de Cartagena", "amenity": "fuel", "brand": "Esso", "brand:wikidata": "Q867662", "landuse": "retail", "name": "Esso", "operator": "Esso", "source": "Kaart Ground Survey 2018"}, "geometry": {"type": "LineString", "coordinates": [[-75.5212842, 10.4051328], [-75.5213069, 10.4049947], [-75.5213103, 10.4047943], [-75.5209892, 10.4047425], [-75.5209436, 10.404939], [-75.5204728, 10.4048295], [-75.5205461, 10.4050198], [-75.5206011, 10.4050984], [-75.5206311, 10.4051331], [-75.5206977, 10.4051648], [-75.5209395, 10.4052102], [-75.5210973, 10.4052315], [-75.5211816, 10.4051989], [-75.5212842, 10.4051328]]}}, {"type": "Feature", "id": 1355475888, "properties": {"addr:street": "Calle 30", "amenity": "fuel", "brand": "Terpel", "brand:wikidata": "Q7703003", "brand:wikipedia": "en:Terpel", "landuse": "retail", "name": "Terpel", "operator": "Terpel"}, "geometry": {"type": "LineString", "coordinates": [[-75.5416703, 10.4213291], [-75.54104, 10.4215533], [-75.5412962, 10.4219372], [-75.5415751, 10.4216206], [-75.5416046, 10.4215731], [-75.5416314, 10.4215362], [-75.5416502, 10.4215006], [-75.541667, 10.4214518], [-75.541675, 10.421397], [-75.5416764, 10.4213641], [-75.5416703, 10.4213291]]}}, {"type": "Feature", "id": 1355702022, "properties": {"addr:street": "Calle 31D", "amenity": "fuel", "brand": "Terpel", "brand:wikidata": "Q7703003", "landuse": "retail", "name": "Terpel"}, "geometry": {"type": "LineString", "coordinates": [[-75.4933529, 10.4065651], [-75.4936544, 10.4066203], [-75.493567, 10.4070139], [-75.4933457, 10.4069659], [-75.4933529, 10.4065651]]}}]}