{"type": "FeatureCollection", "features": [{"type": "Feature", "id": 1422539757, "properties": {"amenity": "hospital", "healthcare": "hospital", "name": "Medihelp"}, "geometry": {"type": "Point", "coordinates": [-75.5563754, 10.3974475]}}, {"type": "Feature", "id": 2898246153, "properties": {"amenity": "hospital", "designation": "hospital", "emergency": "yes", "healthcare": "hospital", "name": "Gestion Salud Ips", "website": "http://gestionsaludips.com"}, "geometry": {"type": "Point", "coordinates": [-75.5180375, 10.4091282]}}, {"type": "Feature", "id": 4022320101, "properties": {"amenity": "hospital", "name": "Centro de Diagnostico Salud Social IPS"}, "geometry": {"type": "Point", "coordinates": [-75.4101691, 10.3227374]}}, {"type": "Feature", "id": 4022342909, "properties": {"amenity": "hospital", "name": "Centro de Salud de Pumarejo"}, "geometry": {"type": "Point", "coordinates": [-75.4093752, 10.3200669]}}, {"type": "Feature", "id": 13875003467, "properties": {"amenity": "hospital", "healthcare": "hospital", "healthcare:speciality": "paediatrics", "name": "Pediacenter"}, "geometry": {"type": "Point", "coordinates": [-75.4895835, 10.3942093]}}, {"type": "Feature", "id": 94668897, "properties": {"amenity": "hospital", "healthcare": "hospital", "name": "Clínica Blas de Lezo"}, "geometry": {"type": "LineString", "coordinates": [[-75.4872112, 10.3921443], [-75.4871228, 10.3921167], [-75.4871023, 10.3921801], [-75.4870837, 10.3922378], [-75.4870767, 10.3922597], [-75.4869311, 10.3921989], [-75.4866301, 10.3920481], [-75.4866115, 10.3920065], [-75.486589, 10.3919553], [-75.4866043, 10.3919492], [-75.4868205, 10.3918615], [-75.486889, 10.3918336], [-75.4870437, 10.3917708], [-75.4871767, 10.3917168], [-75.4872573, 10.3916599], [-75.4872911, 10.3916305], [-75.4873384, 10.39163], [-75.4873634, 10.3916462], [-75.4873408, 10.3917203], [-75.4872593, 10.391987], [-75.4872112, 10.3921443]]}}, {"type": "Feature", "id": 109808868, "properties": {"addr:street": "Avenida Calle 26", "amenity": "hospital", "building": "yes", "healthcare": "hospital", "name": "Clínica Quirúrgica de Manga", "source": "Kaart Ground Survey 2018"}, "geometry": {"type": "Polygon", "coordinates": [[[-75.5367024, 10.4123181], [-75.5363941, 10.4124903], [-75.5363619, 10.4124344], [-75.5364361, 10.412393], [-75.536407, 10.4123428], [-75.5366412, 10.412212], [-75.5367024, 10.4123181]]]}}, {"type": "Feature", "id": 136011725, "properties": {"amenity": "hospital", "emergency": "yes", "healthcare": "hospital", "healthcare:speciality": "general;emergency;orthodontics", "name": "Hospital El Pozón", "source": "bing"}, "geometry": {"type": "LineString", "coordinates": [[-75.4575034, 10.4129957], [-75.4573516, 10.4130324], [-75.4573335, 10.4130818], [-75.4568594, 10.4132027], [-75.4568218, 10.4131639], [-75.4564509, 10.4125837], [-75.456938, 10.4123821], [-75.4571484, 10.4122951], [-75.4575034, 10.4129957]]}}, {"type": "Feature", "id": 356128869, "properties": {"addr:city": "Cartagena de indias", "addr:housenumber": "#40-129", "addr:street": "Transversal 54", "amenity": "hospital", "emergency": "yes", "healthcare": "hospital", "name": "Clínica Blas de Lezo - Urgencias", "phone": "+57 5 6632604"}, "geometry": {"type": "LineString", "coordinates": [[-75.4950358, 10.3908715], [-75.4950203, 10.3907787], [-75.4948724, 10.3899485], [-75.4948552, 10.3898521], [-75.4943185, 10.3899446], [-75.4943422, 10.3900777], [-75.4943811, 10.390296], [-75.4943877, 10.3903332], [-75.4944117, 10.3904676], [-75.4944266, 10.3905511], [-75.4944409, 10.3906313], [-75.494445, 10.3906547], [-75.4944583, 10.3907293], [-75.4945193, 10.3910714], [-75.4946118, 10.3910556], [-75.4946685, 10.3910458], [-75.4947177, 10.3910373], [-75.494777, 10.391027], [-75.494833, 10.3910174], [-75.4948847, 10.3910085], [-75.4949345, 10.391], [-75.4949954, 10.3909895], [-75.4950559, 10.3909791], [-75.4950471, 10.3909294], [-75.4950358, 10.3908715]]}}, {"type": "Feature", "id": 548913636, "properties": {"addr:street": "Calle 29D", "amenity": "hospital", "building": "yes", "healthcare": "hospital", "name": "Clínica La Ermita de Cartagena", "source": "Kaart Ground Survey 2018"}, "geometry": {"type": "Polygon", "coordinates": [[[-75.5331219, 10.41816], [-75.5331586, 10.4181184], [-75.5331919, 10.4181469], [-75.533263, 10.4180664], [-75.5332341, 10.4180418], [-75.5332542, 10.418019], [-75.5331173, 10.4179021], [-75.5330046, 10.4180297], [-75.5330618, 10.4180786], [-75.5330467, 10.4180958], [-75.5331219, 10.41816]]]}}, {"type": "Feature", "id": 558870022, "properties": {"addr:street": "Calle 30", "amenity": "hospital", "building": "yes", "healthcare": "hospital", "name": "Cruz Roja Colombiana", "operator": "Cruz Roja", "operator:type": "ngo", "operator:wikidata": "Q7178"}, "geometry": {"type": "Polygon", "coordinates": [[[-75.5099579, 10.4064036], [-75.5097512, 10.4063001], [-75.5099037, 10.4054742], [-75.5103288, 10.4056871], [-75.5099579, 10.4064036]]]}}, {"type": "Feature", "id": 559964061, "properties": {"addr:street": "Calle 31D", "amenity": "hospital", "building": "yes", "healthcare": "hospital", "name": "Coosalud", "source": "KaartGroundSurvery2018"}, "geometry": {"type": "Polygon", "coordinates": [[[-75.4970091, 10.4076451], [-75.4968359, 10.4076128], [-75.4968844, 10.4073615], [-75.4970576, 10.4073939], [-75.4970091, 10.4076451]]]}}, {"type": "Feature", "id": 640428537, "properties": {"amenity": "hospital", "building": "yes", "healthcare": "dispensory"}, "geometry": {"type": "Polygon", "coordinates": [[[-75.5145155, 10.450255], [-75.5143171, 10.4502409], [-75.5143257, 10.4501236], [-75.5145241, 10.4501378], [-75.5145155, 10.450255]]]}}, {"type": "Feature", "id": 954883140, "properties": {"amenity": "hospital", "emergency": "yes", "healthcare": "hospital", "name": "Hospital Universitario del Caribe"}, "geometry": {"type": "LineString", "coordinates": [[-75.5034325, 10.400044], [-75.5036312, 10.4000281], [-75.5037452, 10.3999659], [-75.5037949, 10.3999121], [-75.503984, 10.3997723], [-75.5045973, 10.3998007], [-75.5045919, 10.3999491], [-75.5047106, 10.3999543], [-75.5046712, 10.4008231], [-75.5047488, 10.4008259], [-75.5047344, 10.4011541], [-75.5045033, 10.4011883], [-75.5044826, 10.4012513], [-75.5044568, 10.4013024], [-75.5044326, 10.4013361], [-75.5044051, 10.4013655], [-75.504373, 10.4013922], [-75.5043456, 10.4013748], [-75.5041604, 10.4012582], [-75.5041396, 10.4012804], [-75.504113, 10.4012974], [-75.5040737, 10.4013107], [-75.504034, 10.4013211], [-75.5039994, 10.4013244], [-75.5039462, 10.401319], [-75.5038904, 10.4013037], [-75.50383, 10.4012683], [-75.5033771, 10.4009752], [-75.5034029, 10.4005408], [-75.5034325, 10.400044]]}}, {"type": "Feature", "id": 962305208, "properties": {"amenity": "hospital", "check_date": "2026-04-27", "emergency": "yes", "healthcare": "hospital", "name": "Nuevo Hospital de Bocagrande"}, "geometry": {"type": "LineString", "coordinates": [[-75.5553369, 10.3955138], [-75.555447, 10.395369], [-75.5559079, 10.3951102], [-75.5565093, 10.3954988], [-75.5565395, 10.3955308], [-75.5566213, 10.3956689], [-75.5566289, 10.3958014], [-75.5564879, 10.3959585], [-75.5564127, 10.3960547], [-75.5563622, 10.3961547], [-75.5553369, 10.3955138]]}}, {"type": "Feature", "id": 1093715357, "properties": {"amenity": "hospital", "healthcare": "hospital", "healthcare:speciality": "w", "name": "Clínica Madre Bernarda", "operator": "Clínica Madre Bernarda", "operator:type": "private"}, "geometry": {"type": "LineString", "coordinates": [[-75.4779429, 10.3936389], [-75.4777729, 10.3935191], [-75.4776891, 10.3934585], [-75.4776216, 10.3934117], [-75.4773126, 10.3937904], [-75.4770683, 10.3940848], [-75.476717, 10.3945083], [-75.4769455, 10.3947686], [-75.4778756, 10.3937181], [-75.4779429, 10.3936389]]}}, {"type": "Feature", "id": 1093731534, "properties": {"amenity": "hospital", "healthcare": "hospital", "name": "Hospital Nuevo Bosque"}, "geometry": {"type": "LineString", "coordinates": [[-75.5056898, 10.3893871], [-75.5056059, 10.3891413], [-75.5051891, 10.3892247], [-75.5052705, 10.3893774], [-75.5053719, 10.3895678], [-75.5056898, 10.3893871]]}}, {"type": "Feature", "id": 1095085579, "properties": {"amenity": "hospital", "healthcare": "hospital", "name": "DADIS"}, "geometry": {"type": "LineString", "coordinates": [[-75.546431, 10.4189144], [-75.5463006, 10.4187658], [-75.5462335, 10.4186937], [-75.5458904, 10.4189766], [-75.545877, 10.4189886], [-75.5458675, 10.4189967], [-75.5458468, 10.4190173], [-75.5458351, 10.4190308], [-75.5457982, 10.419102], [-75.5457875, 10.4191323], [-75.5458405, 10.4191666], [-75.5459397, 10.4192359], [-75.5460738, 10.4193421], [-75.5461687, 10.4194235], [-75.5462478, 10.4193503], [-75.5462683, 10.4193625], [-75.5463434, 10.4193025], [-75.5461704, 10.419104], [-75.5463432, 10.4189807], [-75.546431, 10.4189144]]}}, {"type": "Feature", "id": 1175331327, "properties": {"addr:city": "Cartagena de Indias", "addr:housenumber": "6-49", "addr:neighbourhood": "Castillogrande", "addr:street": "Calle 5", "amenity": "hospital", "building": "hospital", "emergency": "yes", "healthcare": "hospital", "id": "102", "name": "Nuevo Hospital de Bocagrande", "phone": "+57 56502800", "wheelchair": "yes"}, "geometry": {"type": "Polygon", "coordinates": [[[-75.5561728, 10.3959329], [-75.555882, 10.3957713], [-75.5558313, 10.3958175], [-75.555432, 10.3955636], [-75.5555128, 10.395439], [-75.5556836, 10.3954944], [-75.555769, 10.3954159], [-75.5558382, 10.3952936], [-75.5562651, 10.3955521], [-75.5561936, 10.3956836], [-75.556272, 10.3957921], [-75.5561728, 10.3959329]]]}}, {"type": "Feature", "id": 1175331466, "properties": {"amenity": "hospital", "building": "yes", "healthcare": "hospital", "id": "617", "name": "Hospital Naval de Cartagena"}, "geometry": {"type": "Polygon", "coordinates": [[[-75.5510007, 10.4167485], [-75.550715, 10.4168782], [-75.5506525, 10.4167365], [-75.5502036, 10.4169574], [-75.5501483, 10.4169766], [-75.5500187, 10.4170342], [-75.5499491, 10.4168878], [-75.5499839, 10.4168686], [-75.5498218, 10.4165408], [-75.5499335, 10.4164892], [-75.5499923, 10.4164943], [-75.550444, 10.4162867], [-75.5503827, 10.4161486], [-75.550522, 10.4160898], [-75.550564, 10.4161786], [-75.550582, 10.4162248], [-75.5506054, 10.4162764], [-75.5505904, 10.4162824], [-75.5506318, 10.4163773], [-75.5506606, 10.4163635], [-75.5506876, 10.4164253], [-75.5507435, 10.4165574], [-75.5508863, 10.4164925], [-75.5510007, 10.4167485]]]}}, {"type": "Feature", "id": 1204337298, "properties": {"amenity": "hospital", "healthcare": "hospital", "name": "Clínica Universitaria San Juan de Dios"}, "geometry": {"type": "LineString", "coordinates": [[-75.5025936, 10.3900082], [-75.5025449, 10.3900166], [-75.5024908, 10.390026], [-75.5024399, 10.3900349], [-75.5023843, 10.3900445], [-75.5023313, 10.3900537], [-75.5022773, 10.390063], [-75.5022266, 10.3900718], [-75.5021711, 10.3900814], [-75.5021206, 10.3900902], [-75.5020665, 10.3900995], [-75.5020156, 10.3901083], [-75.5019601, 10.3901179], [-75.5019095, 10.3901267], [-75.501836, 10.390138], [-75.5016931, 10.3901599], [-75.5015495, 10.3901823], [-75.501516, 10.3901873], [-75.5014678, 10.3901954], [-75.5013956, 10.3902072], [-75.501338, 10.3902167], [-75.5012844, 10.3902256], [-75.5012361, 10.3902336], [-75.5011824, 10.3902424], [-75.5011252, 10.3902519], [-75.5010742, 10.3902603], [-75.5010175, 10.3902697], [-75.5009592, 10.3902793], [-75.5009067, 10.390288], [-75.5008493, 10.3902975], [-75.5008238, 10.3903017], [-75.5008461, 10.3898143], [-75.5008659, 10.3895964], [-75.5009114, 10.3888844], [-75.5026957, 10.3886064], [-75.5026939, 10.3886326], [-75.5026772, 10.3890486], [-75.5026644, 10.3893374], [-75.5026552, 10.3896128], [-75.5025856, 10.3896142], [-75.5025869, 10.3896758], [-75.5025881, 10.3897316], [-75.5025891, 10.3897826], [-75.5025904, 10.3898424], [-75.5025918, 10.3899079], [-75.5025931, 10.3899728], [-75.5025936, 10.3900082]]}}, {"type": "Feature", "id": 1206710211, "properties": {"amenity": "hospital", "healthcare": "hospital", "name": "Centro Médico Buenos Aires"}, "geometry": {"type": "LineString", "coordinates": [[-75.4911966, 10.3912576], [-75.4912016, 10.3912873], [-75.4912269, 10.3914358], [-75.4912478, 10.3915587], [-75.4912669, 10.3916458], [-75.491396, 10.3916243], [-75.491463, 10.3916132], [-75.4915368, 10.3916009], [-75.4915219, 10.3915136], [-75.4915103, 10.3914465], [-75.4915004, 10.3913882], [-75.4914907, 10.3913314], [-75.4914704, 10.3912127], [-75.4914298, 10.3912193], [-75.4913776, 10.3912279], [-75.4913526, 10.391232], [-75.4911966, 10.3912576]]}}, {"type": "Feature", "id": 1206776154, "properties": {"amenity": "hospital", "healthcare": "hospital", "name": "Hospital Naval de Cartagena: Unidad Funcional de Atención Primaria ‒ Sede Blas de Lezo"}, "geometry": {"type": "LineString", "coordinates": [[-75.4870978, 10.388328], [-75.4870935, 10.388287], [-75.4870339, 10.3879899], [-75.4864231, 10.3881079], [-75.4864685, 10.3883493], [-75.4864854, 10.3884395], [-75.4865593, 10.3884265], [-75.4866374, 10.3884125], [-75.4870978, 10.388328]]}}, {"type": "Feature", "id": 1265981659, "properties": {"amenity": "hospital", "healthcare": "hospital", "operator": "Mutualser EPS"}, "geometry": {"type": "LineString", "coordinates": [[-75.5074081, 10.4064314], [-75.5074581, 10.406243], [-75.5077253, 10.4063012], [-75.5078122, 10.4058814], [-75.5078675, 10.4056122], [-75.5079231, 10.4053483], [-75.5080105, 10.4053661], [-75.5080648, 10.4050238], [-75.5077209, 10.4051164], [-75.5070333, 10.4056291], [-75.5068857, 10.4057418], [-75.5074081, 10.4064314]]}}, {"type": "Feature", "id": 1367209356, "properties": {"amenity": "hospital", "healthcare": "hospital", "name": "Servicios Médicos Buenos Aires", "operator": "Servicios Médicos Buenos Aires", "operator:type": "private"}, "geometry": {"type": "LineString", "coordinates": [[-75.4912488, 10.3906958], [-75.4912294, 10.3905859], [-75.4912194, 10.3905294], [-75.4910623, 10.3905578], [-75.4910713, 10.3906105], [-75.4910889, 10.3907224], [-75.4912488, 10.3906958]]}}, {"type": "Feature", "id": 1467182866, "properties": {"amenity": "hospital", "healthcare": "hospital", "name": "Clínica Madre Bernarda: Unidad Médica", "operator": "Clínica Madre Bernarda", "operator:type": "private"}, "geometry": {"type": "LineString", "coordinates": [[-75.4769544, 10.3940367], [-75.4766725, 10.3937058], [-75.4762662, 10.3940017], [-75.4760973, 10.3941214], [-75.4764317, 10.3946216], [-75.4764549, 10.3946134], [-75.4765836, 10.3944771], [-75.4766158, 10.3944378], [-75.4766499, 10.3943962], [-75.4766715, 10.3943707], [-75.4767841, 10.3942377], [-75.4768501, 10.3941598], [-75.4769544, 10.3940367]]}}, {"type": "Feature", "id": 1467192027, "properties": {"addr:city": "Cartagena de Indias", "addr:housenumber": "#38-60", "addr:street": "Carrera 48", "amenity": "hospital", "emergency": "no", "healthcare": "hospital", "healthcare:speciality": "oncology;radiotherapy", "name": "Centro Radio Oncológico Del Caribe", "operator": "Centro Radio Oncológico Del Caribe", "operator:type": "private", "website": "https://www.crocsas.com"}, "geometry": {"type": "LineString", "coordinates": [[-75.5079231, 10.4053483], [-75.5080105, 10.4053661], [-75.5081571, 10.405396], [-75.5082109, 10.405407], [-75.5081553, 10.4056708], [-75.5081016, 10.4056598], [-75.5078675, 10.4056122], [-75.5079231, 10.4053483]]}}, {"type": "Feature", "id": 1474214973, "properties": {"amenity": "hospital", "healthcare": "hospital", "name": "I.P.S. Salud del Caribe S.A.", "operator": "EPS Sura"}, "geometry": {"type": "LineString", "coordinates": [[-75.4795272, 10.3925274], [-75.4793505, 10.3924626], [-75.479351, 10.392433], [-75.479502, 10.3922324], [-75.4795243, 10.3922028], [-75.4795779, 10.3921315], [-75.479634, 10.3921523], [-75.4796654, 10.3921639], [-75.4796564, 10.3921876], [-75.4795374, 10.3925007], [-75.4795272, 10.3925274]]}}, {"type": "Feature", "id": 1475171922, "properties": {"amenity": "hospital", "emergency": "yes", "healthcare": "hospital", "name": "Virrey Solís I.P.S.: Urgencias", "operator": "Salud Total", "operator:type": "private"}, "geometry": {"type": "LineString", "coordinates": [[-75.4766772, 10.3950502], [-75.4766521, 10.3950015], [-75.4764792, 10.3947046], [-75.476623, 10.394589], [-75.4766564, 10.3945604], [-75.476717, 10.3945083], [-75.4769455, 10.3947686], [-75.4766772, 10.3950502]]}}, {"type": "Feature", "id": 1517646555, "properties": {"amenity": "hospital", "healthcare": "hospital", "name": "Virrey Solís I.P.S.", "operator": "Salud Total"}, "geometry": {"type": "LineString", "coordinates": [[-75.4853, 10.3941537], [-75.4850818, 10.3941449], [-75.4850769, 10.3941385], [-75.4850645, 10.3941222], [-75.4849468, 10.3939683], [-75.4850864, 10.3938647], [-75.4852229, 10.3940452], [-75.4853, 10.3941537]]}}, {"type": "Feature", "id": 1530747176, "properties": {"amenity": "hospital", "healthcare": "hospital", "name": "Clínica General del Caribe"}, "geometry": {"type": "LineString", "coordinates": [[-75.4873567, 10.3976293], [-75.4873545, 10.3973648], [-75.486441, 10.3973722], [-75.4864409, 10.3973825], [-75.4864393, 10.3976504], [-75.4873567, 10.3976293]]}}]}