{"type": "FeatureCollection", "features": [{"type": "Feature", "id": 12833875759, "properties": {"addr:city": "Cartagena de Indias", "amenity": "university", "name": "Universidad Jorge Tadeo Lozano Seccional del Caribe", "website": "https://www.utadeo.edu.co"}, "geometry": {"type": "Point", "coordinates": [-75.5506928, 10.4270194]}}, {"type": "Feature", "id": 64145958, "properties": {"amenity": "university", "name": "Colegio Mayor de Bolívar", "source": "bing"}, "geometry": {"type": "LineString", "coordinates": [[-75.5527425, 10.4257487], [-75.5525344, 10.4256811], [-75.5524785, 10.4256629], [-75.5523891, 10.4258258], [-75.5519866, 10.4257166], [-75.5519383, 10.4263164], [-75.5521124, 10.4263279], [-75.5523045, 10.4262218], [-75.5527425, 10.4257487]]}}, {"type": "Feature", "id": 64881697, "properties": {"amenity": "university", "internet_access": "wlan", "name": "Universidad de Cartagena - Sede Piedra de Bolívar", "opening_hours": "Mo-Sa 07:00-22:00", "website": "https://unicartagena.edu.co/"}, "geometry": {"type": "LineString", "coordinates": [[-75.5058473, 10.4036001], [-75.5058948, 10.4035135], [-75.5062936, 10.4027869], [-75.5063958, 10.4027151], [-75.5065375, 10.4026384], [-75.50667, 10.4025666], [-75.5066933, 10.402529], [-75.5066833, 10.4024773], [-75.5065783, 10.4022144], [-75.5063774, 10.4017305], [-75.5063522, 10.4015185], [-75.5063213, 10.4010588], [-75.50629, 10.4006443], [-75.5062811, 10.4005185], [-75.5057669, 10.400696], [-75.5056046, 10.4007499], [-75.5052319, 10.4008844], [-75.5048279, 10.4010516], [-75.504642, 10.4015893], [-75.5046265, 10.4016342], [-75.5046155, 10.4016683], [-75.5044607, 10.4021498], [-75.5049351, 10.4027283], [-75.5051802, 10.4030358], [-75.50528, 10.403161], [-75.5054513, 10.403358], [-75.5055355, 10.4034085], [-75.5055857, 10.4034044], [-75.5055988, 10.4033922], [-75.5056014, 10.4033694], [-75.5056261, 10.4033696], [-75.5056423, 10.4033698], [-75.5056413, 10.4033978], [-75.5056452, 10.4034163], [-75.5056575, 10.4034247], [-75.5056673, 10.4034275], [-75.505684, 10.4034353], [-75.5057014, 10.4034434], [-75.505716, 10.4034589], [-75.5057215, 10.4034723], [-75.5057182, 10.403487], [-75.5057083, 10.4034886], [-75.5056943, 10.4034901], [-75.5056878, 10.4035001], [-75.5056905, 10.4035104], [-75.5057035, 10.4035217], [-75.5057144, 10.4035231], [-75.5058135, 10.403602], [-75.5058252, 10.4036043], [-75.5058367, 10.4036042], [-75.5058473, 10.4036001]]}}, {"type": "Feature", "id": 67057822, "properties": {"amenity": "university", "fenced": "yes", "name": "Universidad Tecnológica de Bolívar"}, "geometry": {"type": "LineString", "coordinates": [[-75.5379693, 10.4132565], [-75.5376749, 10.4128198], [-75.5380399, 10.4126322], [-75.5380738, 10.412706], [-75.5383691, 10.4126314], [-75.5385503, 10.4128954], [-75.5379693, 10.4132565]]}}, {"type": "Feature", "id": 68731740, "properties": {"amenity": "university", "barrier": "yes", "name": "Universidad de San Buenaventura"}, "geometry": {"type": "LineString", "coordinates": [[-75.4658993, 10.3858333], [-75.4661044, 10.3860483], [-75.4661477, 10.3860798], [-75.4663311, 10.3862132], [-75.4666154, 10.3864018], [-75.4667334, 10.3864849], [-75.4669882, 10.3867065], [-75.4656096, 10.3879584], [-75.4637736, 10.3896587], [-75.4630681, 10.39028], [-75.4628188, 10.3905057], [-75.4624788, 10.3908862], [-75.4623561, 10.3910808], [-75.4623212, 10.3910761], [-75.4622555, 10.3911652], [-75.4621589, 10.3912344], [-75.4620208, 10.3912898], [-75.461886, 10.391301], [-75.4617405, 10.3912865], [-75.4606957, 10.3908421], [-75.4608535, 10.389613], [-75.4609264, 10.3892142], [-75.4609667, 10.389052], [-75.4615058, 10.3884979], [-75.4620744, 10.3878938], [-75.4629784, 10.3868041], [-75.4632197, 10.3867461], [-75.4634276, 10.3867844], [-75.4635443, 10.3868517], [-75.4636543, 10.3869295], [-75.4638366, 10.3870535], [-75.4639936, 10.3871564], [-75.4643852, 10.3872593], [-75.4645555, 10.3873107], [-75.464703, 10.3871524], [-75.4649484, 10.386886], [-75.4658993, 10.3858333]]}}, {"type": "Feature", "id": 68735397, "properties": {"amenity": "university", "name": "Universidad Tecnológica de Bolívar - Campus Ternera"}, "geometry": {"type": "LineString", "coordinates": [[-75.4657693, 10.3714474], [-75.464964, 10.3706412], [-75.465062, 10.3705613], [-75.4640308, 10.3693245], [-75.4628302, 10.370178], [-75.4614574, 10.3683683], [-75.4629478, 10.3665868], [-75.4635026, 10.3660002], [-75.4652712, 10.3679653], [-75.4653616, 10.3680589], [-75.4674583, 10.3699346], [-75.4657693, 10.3714474]]}}, {"type": "Feature", "id": 75266752, "properties": {"amenity": "university", "description": "Fundación Tecnológica Antoniio de Arévalo. Naviera y Portuaria.", "name": "TECNAR"}, "geometry": {"type": "LineString", "coordinates": [[-75.5506437, 10.4261496], [-75.5503227, 10.4261836], [-75.5502707, 10.4261891], [-75.55021, 10.4261956], [-75.5501888, 10.4260407], [-75.5501867, 10.4259897], [-75.5501846, 10.4259408], [-75.5501812, 10.425858], [-75.5501784, 10.4257909], [-75.5501774, 10.4257668], [-75.5505916, 10.4257205], [-75.5506146, 10.4258843], [-75.5506437, 10.4261496]]}}, {"type": "Feature", "id": 95910511, "properties": {"amenity": "university", "name": "Universidad Jorge Tadeo Lozano"}, "geometry": {"type": "LineString", "coordinates": [[-75.4594499, 10.5529066], [-75.4641384, 10.5507259], [-75.4588491, 10.5482446], [-75.45831, 10.5496079], [-75.45774, 10.5508762], [-75.4572639, 10.5518598], [-75.4579371, 10.5521815], [-75.4594499, 10.5529066]]}}, {"type": "Feature", "id": 96025492, "properties": {"amenity": "university", "branch": "Zaragocilla", "name": "Universidad de Cartagena - Sede Zaragocilla", "source": "Kaart Ground Survey 2018", "website": "https://unicartagena.edu.co/"}, "geometry": {"type": "LineString", "coordinates": [[-75.5032423, 10.4007986], [-75.5033053, 10.4007576], [-75.5033272, 10.4006682], [-75.5033436, 10.4003236], [-75.503448, 10.398516], [-75.5033807, 10.3985429], [-75.5032484, 10.3985959], [-75.5030172, 10.3987186], [-75.5029466, 10.398756], [-75.5028119, 10.3988426], [-75.502723, 10.3989359], [-75.5026768, 10.3989793], [-75.502635, 10.3990267], [-75.5026253, 10.399026], [-75.5026253, 10.3990416], [-75.5024816, 10.39924], [-75.502463, 10.3992396], [-75.5024623, 10.3992785], [-75.502404, 10.3993964], [-75.5023982, 10.3993963], [-75.5022042, 10.3997293], [-75.5021888, 10.3997563], [-75.5021605, 10.3998059], [-75.50202, 10.4000575], [-75.5019786, 10.400132], [-75.5019694, 10.4001666], [-75.5019681, 10.4001972], [-75.5019764, 10.4002271], [-75.5019876, 10.40025], [-75.502014, 10.4002801], [-75.5020658, 10.4003081], [-75.5021246, 10.4003274], [-75.5026388, 10.400457], [-75.5031149, 10.4007879], [-75.5031766, 10.4008104], [-75.5032423, 10.4007986]]}}, {"type": "Feature", "id": 133810179, "properties": {"amenity": "university", "name": "Universidad Antonio Nariño"}, "geometry": {"type": "LineString", "coordinates": [[-75.517074, 10.3959878], [-75.5170045, 10.3957917], [-75.5169291, 10.3957939], [-75.5167518, 10.3958612], [-75.5164971, 10.3954141], [-75.5172436, 10.3951745], [-75.5173697, 10.3955891], [-75.5170937, 10.3956684], [-75.5171992, 10.3959498], [-75.517074, 10.3959878]]}}, {"type": "Feature", "id": 160488964, "properties": {"amenity": "university", "name": "Fundación Universitaria Tecnológico Comfenalco", "source": "bing"}, "geometry": {"type": "LineString", "coordinates": [[-75.5103606, 10.406911], [-75.5104715, 10.4069716], [-75.5105701, 10.4070231], [-75.5108135, 10.4065746], [-75.5110508, 10.4067019], [-75.5113219, 10.4062261], [-75.5110939, 10.4061049], [-75.5110682, 10.4060912], [-75.5108622, 10.4059819], [-75.5103606, 10.406911]]}}, {"type": "Feature", "id": 162459761, "properties": {"amenity": "university", "building": "yes", "name": "CURN", "source": "bing"}, "geometry": {"type": "Polygon", "coordinates": [[[-75.5483513, 10.4209389], [-75.5482153, 10.4207948], [-75.5482562, 10.4207611], [-75.5482882, 10.4207929], [-75.548329, 10.4207539], [-75.5483624, 10.4207932], [-75.5484102, 10.420749], [-75.5484463, 10.4207832], [-75.548387, 10.4208359], [-75.548429, 10.4208781], [-75.5483513, 10.4209389]]]}}, {"type": "Feature", "id": 558965720, "properties": {"addr:street": "Avenida Pedro de Heredia", "amenity": "university", "building": "yes", "name": "Universitaria Regional Del Caribe IAFIC", "source": "Kaart Ground Survey 2018", "website": "https://iafic.edu.co/"}, "geometry": {"type": "Polygon", "coordinates": [[[-75.5368529, 10.4223494], [-75.5368515, 10.4226466], [-75.5368296, 10.4226771], [-75.5367872, 10.4227432], [-75.5366144, 10.4226303], [-75.5366177, 10.4226112], [-75.5366003, 10.4226026], [-75.5367054, 10.4223349], [-75.5368529, 10.4223494]]]}}, {"type": "Feature", "id": 559145617, "properties": {"addr:street": "Carrera 50", "amenity": "university", "name": "Unicolombo"}, "geometry": {"type": "LineString", "coordinates": [[-75.5017084, 10.4072359], [-75.501253, 10.4071485], [-75.501321, 10.4068052], [-75.5017764, 10.4068925], [-75.5017084, 10.4072359]]}}, {"type": "Feature", "id": 612661277, "properties": {"amenity": "university", "name": "Universidad Libre"}, "geometry": {"type": "LineString", "coordinates": [[-75.5316945, 10.4208431], [-75.5318648, 10.420547], [-75.5318202, 10.4205226], [-75.5318645, 10.4204437], [-75.5318928, 10.4204523], [-75.5321536, 10.4199385], [-75.5318635, 10.419797], [-75.5315825, 10.4203372], [-75.5314169, 10.4206617], [-75.5314598, 10.4207079], [-75.5315557, 10.4207989], [-75.5316164, 10.4208381], [-75.5316288, 10.420815], [-75.5316945, 10.4208431]]}}, {"type": "Feature", "id": 1093725648, "properties": {"amenity": "university", "branch": "Sede Santillana", "name": "Universidad del Sinú - Sede Santillana", "operator": "Universidad del Sinú", "operator:type": "university"}, "geometry": {"type": "LineString", "coordinates": [[-75.4999978, 10.3890516], [-75.5001209, 10.3897779], [-75.5003736, 10.3897308], [-75.5003662, 10.3896939], [-75.5008659, 10.3895964], [-75.5008461, 10.3898143], [-75.5008238, 10.3903017], [-75.500795, 10.3903065], [-75.500745, 10.3903148], [-75.500693, 10.3903233], [-75.5006373, 10.3903326], [-75.500583, 10.3903415], [-75.5005268, 10.3903508], [-75.5004711, 10.39036], [-75.5004112, 10.3903699], [-75.5003512, 10.3903798], [-75.5002933, 10.3903894], [-75.5002433, 10.3903977], [-75.50019, 10.3904064], [-75.5001368, 10.3904153], [-75.5000847, 10.3904239], [-75.5000328, 10.3904325], [-75.4999826, 10.3904408], [-75.4999305, 10.3904494], [-75.4998727, 10.3904589], [-75.4998145, 10.3904685], [-75.4997575, 10.390478], [-75.4996996, 10.3904875], [-75.4996408, 10.3904973], [-75.4995903, 10.3905055], [-75.4995482, 10.3905127], [-75.4994394, 10.3905306], [-75.4993193, 10.3905504], [-75.4992669, 10.3905591], [-75.4991675, 10.3905754], [-75.4991545, 10.3905776], [-75.4990568, 10.3905938], [-75.4990575, 10.3904978], [-75.499058, 10.3904407], [-75.4990584, 10.3903812], [-75.4990588, 10.3903296], [-75.4990592, 10.3902764], [-75.4990596, 10.3902239], [-75.4990602, 10.3901545], [-75.4990608, 10.3900718], [-75.499061, 10.3900457], [-75.4990612, 10.3900159], [-75.4990737, 10.3892178], [-75.4993042, 10.3891592], [-75.4999978, 10.3890516]]}}, {"type": "Feature", "id": 1094677733, "properties": {"addr:city": "Cartagena", "addr:housenumber": "31 - 45", "addr:postcode": "130004", "addr:street": "Calle 49A", "alt_name": "UNITECNAR", "amenity": "university", "internet_access": "yes", "internet_access:fee": "customers", "name": "Fundacion Universitaria Antonio de Arévalo", "website": "https://www.unitecnar.edu.co/"}, "geometry": {"type": "LineString", "coordinates": [[-75.5048518, 10.4076441], [-75.5048637, 10.4075785], [-75.5048922, 10.4074216], [-75.5049151, 10.4072953], [-75.5049466, 10.4071223], [-75.5046101, 10.4070632], [-75.5045354, 10.4070501], [-75.5044506, 10.4070352], [-75.5043571, 10.4075498], [-75.5045291, 10.40758], [-75.5044619, 10.4079501], [-75.5046176, 10.4079775], [-75.5046836, 10.4076146], [-75.5048518, 10.4076441]]}}, {"type": "Feature", "id": 1207816347, "properties": {"amenity": "university", "name": "Universidad de Cartagena - Sede San Pablo", "website": "https://unicartagena.edu.co/"}, "geometry": {"type": "LineString", "coordinates": [[-75.5046167, 10.3990661], [-75.5045925, 10.3992701], [-75.5045802, 10.3994581], [-75.5045748, 10.3995521], [-75.5046018, 10.3996468], [-75.5046012, 10.3996953], [-75.5045973, 10.3998007], [-75.503984, 10.3997723], [-75.5037949, 10.3999121], [-75.5037452, 10.3999659], [-75.5036312, 10.4000281], [-75.5034325, 10.400044], [-75.5035573, 10.3985478], [-75.5036175, 10.3985252], [-75.503706, 10.3985165], [-75.5040422, 10.3987044], [-75.5044687, 10.3989794], [-75.5046167, 10.3990661]]}}, {"type": "Feature", "id": 1265981655, "properties": {"amenity": "university", "name": "Corporación Emprender - Sede Cartagena", "operator": "Corporación Universitaria Latinoamericana"}, "geometry": {"type": "LineString", "coordinates": [[-75.5068857, 10.4057418], [-75.5074081, 10.4064314], [-75.5069161, 10.406347], [-75.5069257, 10.4062493], [-75.5067869, 10.4060837], [-75.506657, 10.4059213], [-75.5068538, 10.4057691], [-75.5068687, 10.4057549], [-75.5068857, 10.4057418]]}}, {"type": "Feature", "id": 1364817742, "properties": {"amenity": "university", "barrier": "yes", "name": "Corporación Universitaria Rafael Núñez"}, "geometry": {"type": "LineString", "coordinates": [[-75.5380109, 10.4270581], [-75.5376756, 10.4268418], [-75.537453, 10.4265569], [-75.5373752, 10.4263036], [-75.5376193, 10.4260451], [-75.5382308, 10.4268048], [-75.5380109, 10.4270581]]}}]}